Business,Category,Component,Latitude,Lifeline,Longitude,Source,Lifeline_name,Zipcode
Houston Police Department Headquarters,houston police department,Law Enforce/Security,29.7555836,1,-95.3674716,Google,Saftey & Security,77002
Houston Police Department,houston police department,Law Enforce/Security,29.8570227,1,-95.5397458,Google,Saftey & Security,77040
Houston Police Department,houston police department,Law Enforce/Security,29.7273786,1,-95.6047691,Google,Saftey & Security,77077
Houston Police Department - Central Patrol Station,houston police department,Law Enforce/Security,29.7648943,1,-95.3705532,Google,Saftey & Security,77201
Houston Police Department,houston police department,Law Enforce/Security,29.7670378,1,-95.3683634,Google,Saftey & Security,77201
Houston Police Department - South Central Substation,houston police department,Law Enforce/Security,29.7429822,1,-95.3624932,Google,Saftey & Security,77002
Houston Police Department,houston police department,Law Enforce/Security,29.8795245,1,-95.4468599,Google,Saftey & Security,77088
Houston Police Department,houston police department,Law Enforce/Security,29.6498553,1,-95.5282221,Google,Saftey & Security,77071
Houston Police Foundation,houston police department,Law Enforce/Security,29.7561122,1,-95.3623858,Google,Saftey & Security,77010
Houston Police Department,houston police department,Law Enforce/Security,29.7065742,1,-95.5440792,Google,Saftey & Security,77036
Houston Police Department Storefront,houston police department,Law Enforce/Security,29.6619261,1,-95.2764316,Google,Saftey & Security,77061
Houston Police Department,houston police department,Law Enforce/Security,29.6522707,1,-95.4764546,Google,Saftey & Security,77035
Houston Police Department,houston police department,Law Enforce/Security,29.6962267,1,-95.3353142,Google,Saftey & Security,77021
Houston Police Department,houston police department,Law Enforce/Security,29.7729733,1,-95.2239937,Google,Saftey & Security,77029
Houston Police Department Store Front,houston police department,Law Enforce/Security,29.6864744,1,-95.255292,Google,Saftey & Security,77017
Houston Police Department,houston police department,Law Enforce/Security,29.579614,1,-95.106676,Google,Saftey & Security,77058
Houston Police Department,houston police department,Law Enforce/Security,29.8322187,1,-95.2733032,Google,Saftey & Security,77028
Houston Police Department - Southeast Station,houston police department,Law Enforce/Security,29.6575293,1,-95.3170167,Google,Saftey & Security,77033
Houston Police Station,houston police department,Law Enforce/Security,29.7343372,1,-95.290121,Google,Saftey & Security,77011
HPD Midwest Patrol Station,houston police department,Law Enforce/Security,29.7166809,1,-95.5115278,Google,Saftey & Security,77063
Houston Police Organization,houston police organization,Law Enforce/Security,29.8148259,1,-95.3873857,Google,Saftey & Security,77022
Houston Police Department - Neighborhood Storefront,houston police organization,Law Enforce/Security,29.7127119,1,-95.3573396,Google,Saftey & Security,77021
Houston Police Foundation,houston police organization,Law Enforce/Security,29.7561122,1,-95.3623858,Google,Saftey & Security,77010
Houston Police Department - Central Patrol Station,houston police organization,Law Enforce/Security,29.7648943,1,-95.3705532,Google,Saftey & Security,77201
Houston Police Retired Offcrs,houston police organization,Law Enforce/Security,29.7908675,1,-95.4295091,Google,Saftey & Security,77008
Houston Police Officers' Union,houston police organization,Law Enforce/Security,29.76498,1,-95.3742851,Google,Saftey & Security,77201
Houston Emergency Management,houston emergency management,Search and Rescue,29.8434836,1,-95.4094996,Google,Saftey & Security,77018
Houston Fire Station 13,fire department,Fire Services,29.8322515,1,-95.4513538,Google,Saftey & Security,77092
Houston Fire Department,fire department,Fire Services,29.7346097,1,-95.4023089,Google,Saftey & Security,77006
Northwest Volunteer Fire Department,fire department,Fire Services,29.9493404,1,-95.4994287,Google,Saftey & Security,77066
Community Volunteer Fire Department,fire department,Fire Services,29.7004736,1,-95.6675807,Google,Saftey & Security,77083
League City Fire Station 1,fire department,Fire Services,29.5111805,1,-95.0915451,Google,Saftey & Security,77573
Northwest Volunteer Fire Department,fire department,Fire Services,29.9003344,1,-95.4616146,Google,Saftey & Security,77038
Spring Fire Department Station 71,fire department,Fire Services,30.0710824,1,-95.4243508,Google,Saftey & Security,77388
Missouri City Fire Department,fire department,Fire Services,29.5822041,1,-95.5668132,Google,Saftey & Security,77477
Ponderosa Volunteer Fire Department,fire department,Fire Services,30.014256,1,-95.454723,Google,Saftey & Security,77090
Village Fire Department,fire department,Fire Services,29.7808675,1,-95.5143176,Google,Saftey & Security,77024
Houston Fire Station 62,fire department,Fire Services,29.798103,1,-95.4377768,Google,Saftey & Security,77008
Westfield Fire Department: Central Station & Administration,fire department,Fire Services,29.911907,1,-95.33368,Google,Saftey & Security,77039
Spring Fire Department Station 72,fire department,Fire Services,30.0991482,1,-95.513692,Google,Saftey & Security,77389
Houston Fire Station 02,fire department,Fire Services,29.7623413,1,-95.4811261,Google,Saftey & Security,77057
Southeast Volunteer Fire Department,fire department,Fire Services,29.581632,1,-95.2162344,Google,Saftey & Security,77089
Spring Fire Department Station 74,fire department,Fire Services,30.0543231,1,-95.3950823,Google,Saftey & Security,77373
Northwest Volunteer Fire Department,fire department,Fire Services,29.9248691,1,-95.5050779,Google,Saftey & Security,77086
Richmond Fire Department,fire department,Fire Services,29.5813672,1,-95.7596378,Google,Saftey & Security,77406
Cy-Fair Volunteer Fire Department Station 11,fire department,Fire Services,29.9082306,1,-95.6968073,Google,Saftey & Security,77095
Houston Fire Department-Arson Division,fire department,Fire Services,29.769632,1,-95.369665,Google,Saftey & Security,77201
US General Services Administration,government services,Government Services,29.7525543,1,-95.3704013,Google,Saftey & Security,77002
US Marshals Services,government services,Government Services,29.7611259,1,-95.3674576,Google,Saftey & Security,77201
US Customs Services,government services,Government Services,29.7453891,1,-95.4103454,Google,Saftey & Security,77019
US Customs Services,government services,Government Services,29.6408676,1,-95.2779448,Google,Saftey & Security,77061
U.S. Customs and Border Protection - Houston Airport Service Port,government services,Government Services,29.9380721,1,-95.3505345,Google,Saftey & Security,77039
Houston City Secretary,government services,Government Services,29.7607008,1,-95.370064,Google,Saftey & Security,77201
Houston Multi-Services Center,government services,Government Services,29.8042647,1,-95.31655,Google,Saftey & Security,77026
Harris County Community Services Department,government services,Government Services,29.6842536,1,-95.4169758,Google,Saftey & Security,77054
Fort Bend County Building Services,government services,Government Services,29.5813839,1,-95.7625407,Google,Saftey & Security,77406
Harris County Bereavement Services,government services,Government Services,29.8471418,1,-95.3422643,Google,Saftey & Security,77093
US Pretrial Services,government services,Government Services,29.7609918,1,-95.3675482,Google,Saftey & Security,77201
Department of Assistive and Rehabilitative Services,government services,Government Services,29.7139571,1,-95.494664,Google,Saftey & Security,77081
Sugar Land Emergency Med Services,government services,Government Services,29.6037276,1,-95.6369089,Google,Saftey & Security,77478
Metropolitan Multi-Services Center,government services,Government Services,29.7523561,1,-95.4001233,Google,Saftey & Security,77019
Harris County Pretrial Services,government services,Government Services,29.762601,1,-95.358259,Google,Saftey & Security,77201
Department of Rehab Services,government services,Government Services,29.9374443,1,-95.3951137,Google,Saftey & Security,77060
Social Services Department,government services,Government Services,29.6858522,1,-95.1555651,Google,Saftey & Security,77503
Texas Health And Human Services Commission,government services,Government Services,29.6105434,1,-95.2336701,Google,Saftey & Security,77089
Harris County Fleet Services,government services,Government Services,29.7523641,1,-95.349231,Google,Saftey & Security,77003
Dept-Health & Human Services Office,government services,Government Services,29.7519431,1,-95.3738287,Google,Saftey & Security,77002
Minute Maid Park,stadiumsarenas,Shelter,29.75728849,2,-95.35552816,Yelp,"Food, water, sheltering",77010
Toyota Center,stadiumsarenas,Shelter,29.75175,2,-95.36202,Yelp,"Food, water, sheltering",77010
BBVA Stadium,stadiumsarenas,Shelter,29.752236,2,-95.352425,Yelp,"Food, water, sheltering",77003
Houston Food Bank,foodbanks,Food,29.781014,2,-95.274751,Yelp,"Food, water, sheltering",77029
Friends For Life,animalshelters,Shelter,29.80628967,2,-95.39862061,Yelp,"Food, water, sheltering",77008
Dupure,waterpurification,Food,29.93066267,2,-95.54876172,Yelp,"Food, water, sheltering",77064
TDECU Stadium,stadiumsarenas,Shelter,29.7238713,2,-95.3476228,Yelp,"Food, water, sheltering",77021
Wildlife Center of Texas,animalshelters,Shelter,29.7813715,2,-95.441616,Yelp,"Food, water, sheltering",77008
BARC Animal Shelter and Adoptions,animalshelters,Shelter,29.791499,2,-95.343781,Yelp,"Food, water, sheltering",77026
Elite F'ing Meals,fooddeliveryservices,Food,29.86234,2,-95.38415,Yelp,"Food, water, sheltering",77076
Culligan,waterpurification,Food,29.844051,2,-95.513334,Yelp,"Food, water, sheltering",77080
Vital Kitchen,fooddeliveryservices,Food,29.7178766,2,-95.4147568,Yelp,"Food, water, sheltering",77005
Houston SPCA,animalshelters,Shelter,29.7813715,2,-95.441616,Yelp,"Food, water, sheltering",77008
Aqua Systems of Houston,waterpurification,Food,29.7604267,2,-95.3698028,Yelp,"Food, water, sheltering",77201
Bee Fit Foods,fooddeliveryservices,Food,29.680624,2,-95.42374,Yelp,"Food, water, sheltering",77025
Shaggy Dog Rescue,animalshelters,Shelter,29.74146,2,-95.38976,Yelp,"Food, water, sheltering",77006
Pup Squad Animal Rescue,animalshelters,Shelter,29.75712,2,-95.36442,Yelp,"Food, water, sheltering",77010
Jolie Vue Farms,fooddeliveryservices,Food,29.7232,2,-95.429737,Yelp,"Food, water, sheltering",77005
NRG Arena,stadiumsarenas,Shelter,29.681146,2,-95.406024,Yelp,"Food, water, sheltering",77054
Maria's Gourmet Kitchen,fooddeliveryservices,Food,29.68473434,2,-95.43836212,Yelp,"Food, water, sheltering",77025
Scout's Honor Rescue,animalshelters,Shelter,29.75516,2,-95.39842,Yelp,"Food, water, sheltering",77019
Reckling Park,stadiumsarenas,Shelter,29.712471,2,-95.4033966,Yelp,"Food, water, sheltering",77030
NRG Arena,stadiumsarenas,Shelter,29.681185,2,-95.405938,Yelp,"Food, water, sheltering",77054
Houston Water Solutions,waterpurification,Food,29.85185,2,-95.53655,Yelp,"Food, water, sheltering",77040
Fertitta Center,stadiumsarenas,Shelter,29.724757,2,-95.346949,Yelp,"Food, water, sheltering",77003
My IceBox,fooddeliveryservices,Food,29.77874565,2,-95.54007721,Yelp,"Food, water, sheltering",77080
Mirex Aquapure Solutions,waterpurification,Food,29.80634308,2,-95.46841431,Yelp,"Food, water, sheltering",77092
Dhaniya's,fooddeliveryservices,Food,29.83457947,2,-95.41005707,Yelp,"Food, water, sheltering",77018
Darryl & Lori Schroeder Park,stadiumsarenas,Shelter,29.72743352,2,-95.35024524,Yelp,"Food, water, sheltering",77003
Promeals,fooddeliveryservices,Food,29.76613998,2,-95.36488342,Yelp,"Food, water, sheltering",77201
Water Tree Hwy 6,waterpurification,Food,29.8679462,2,-95.6450022,Yelp,"Food, water, sheltering",77084
Eve's Organix,fooddeliveryservices,Food,29.72509575,2,-95.36199188,Yelp,"Food, water, sheltering",77004
Sir Lawrence's Cakes,fooddeliveryservices,Food,29.82681465,2,-95.42551422,Yelp,"Food, water, sheltering",77018
Healthy Gourmet Your Way,fooddeliveryservices,Food,29.759956,2,-95.362534,Yelp,"Food, water, sheltering",77201
"Miniature Schnauzer Rescue of Houston, Inc.",animalshelters,Shelter,29.7601927,2,-95.3693896,Yelp,"Food, water, sheltering",77201
LifeSource Water Systems,waterpurification,Food,29.76613998,2,-95.36488342,Yelp,"Food, water, sheltering",77201
Finnigan Park,communitycenters,Shelter,29.7700587,2,-95.31975724,Yelp,"Food, water, sheltering",77020
Rotizen,fooddeliveryservices,Food,29.73871681,2,-95.3708743,Yelp,"Food, water, sheltering",77002
Nuvia Water Technologies,waterpurification,Food,29.72096,2,-95.55077,Yelp,"Food, water, sheltering",77042
Hofheinz Pavilion,stadiumsarenas,Shelter,29.7239065,2,-95.3472346,Yelp,"Food, water, sheltering",77003
AthlEAT Meals,fooddeliveryservices,Food,29.76555,2,-95.40912,Yelp,"Food, water, sheltering",77007
Tudor Fieldhouse,stadiumsarenas,Shelter,29.71494079,2,-95.40371815,Yelp,"Food, water, sheltering",77030
Dachshund Rescue of Houston,animalshelters,Shelter,29.763056,2,-95.363056,Yelp,"Food, water, sheltering",77201
Houston Food Bank Teacher's Aid,foodbanks,Food,29.77928211,2,-95.27991202,Yelp,"Food, water, sheltering",77029
Sparkletts Water,waterdelivery,Food,29.95535088,2,-95.48867035,Yelp,"Food, water, sheltering",77066
R & S Water Service,waterpurification,Food,29.59906,2,-95.51845,Yelp,"Food, water, sheltering",77489
Veganish,fooddeliveryservices,Food,29.76613998,2,-95.36488342,Yelp,"Food, water, sheltering",77201
Rice Stadium,stadiumsarenas,Shelter,29.69110388,2,-95.41725622,Yelp,"Food, water, sheltering",77054
AMAC Water Products,waterdelivery,Food,29.87608,2,-95.581252,Yelp,"Food, water, sheltering",77041
Superior Water Quality,waterpurification,Food,29.71742,2,-95.54244,Yelp,"Food, water, sheltering",77042
Water Tree Richmond,waterpurification,Food,29.70922905,2,-95.68606988,Yelp,"Food, water, sheltering",77083
Big Tex Papas,fooddeliveryservices,Food,29.6911047,2,-95.202927,Yelp,"Food, water, sheltering",77502
Ecowater System,waterpurification,Food,29.9335702,2,-95.5494424,Yelp,"Food, water, sheltering",77064
Carl Lewis International Track & Field Complex,stadiumsarenas,Shelter,29.72607237,2,-95.34777693,Yelp,"Food, water, sheltering",77003
Rayne Water Solutions Of Houston,waterpurification,Food,29.6773564,2,-95.3998379,Yelp,"Food, water, sheltering",77054
The Hippo Kitchen,fooddeliveryservices,Food,29.7765065,2,-95.4201377,Yelp,"Food, water, sheltering",77007
Lone Star Water,waterpurification,Food,29.81959,2,-95.57188,Yelp,"Food, water, sheltering",77043
Delmar Stadium,stadiumsarenas,Shelter,29.802793,2,-95.457139,Yelp,"Food, water, sheltering",77092
Water Tree Heights,waterstores,Food,29.77157,2,-95.39676,Yelp,"Food, water, sheltering",77007
ReadyRefresh,waterdelivery,Food,29.66908,2,-95.40514,Yelp,"Food, water, sheltering",77054
Gourmet Prep Meals,fooddeliveryservices,Food,29.83458,2,-95.41006,Yelp,"Food, water, sheltering",77018
Sunnyside Community Center & Park,communitycenters,Shelter,29.66905182,2,-95.37225694,Yelp,"Food, water, sheltering",77051
Harris County Houston Sports Authority,stadiumsarenas,Shelter,29.7545745,2,-95.3625427,Yelp,"Food, water, sheltering",77010
Blue Apron,fooddeliveryservices,Food,29.75730705,2,-95.36518097,Yelp,"Food, water, sheltering",77010
Aqua Vida Water,waterpurification,Food,29.91039,2,-95.5681199,Yelp,"Food, water, sheltering",77064
RAD Meals,fooddeliveryservices,Food,29.806213,2,-95.4086609,Yelp,"Food, water, sheltering",77008
Clean Water Solutions,waterpurification,Food,29.74722481,2,-95.45152283,Yelp,"Food, water, sheltering",77027
Goodfor Texas Water Purification,waterpurification,Food,29.73356,2,-95.42271,Yelp,"Food, water, sheltering",77098
Houston Astros Baseball Club,stadiumsarenas,Shelter,29.76527214,2,-95.36576843,Yelp,"Food, water, sheltering",77201
Absolutely Alkaline H2O,waterdelivery,Food,29.6984215,2,-95.3864912,Yelp,"Food, water, sheltering",77004
Fresh Diet,fooddeliveryservices,Food,29.75804329,2,-95.36141205,Yelp,"Food, water, sheltering",77010
P.Za Kitchen,fooddeliveryservices,Food,29.72027588,2,-95.42073822,Yelp,"Food, water, sheltering",77005
Texas BBQ Services,fooddeliveryservices,Food,29.800062,2,-95.567668,Yelp,"Food, water, sheltering",77043
Texas Water Softeners,waterpurification,Food,29.77617214,2,-95.7502833,Yelp,"Food, water, sheltering",77450
Texas Quality Water,waterpurification,Food,29.563195,2,-95.143541,Yelp,"Food, water, sheltering",77062
Everwell,waterpurification,Food,30.31661,2,-95.45615,Yelp,"Food, water, sheltering",77301
Richtop Mobile Grocery,fooddeliveryservices,Food,29.67577171,2,-95.41912842,Yelp,"Food, water, sheltering",77054
Infinity Water Systems,waterpurification,Food,30.024206,2,-95.694847,Yelp,"Food, water, sheltering",77377
Ace Water Purification,waterpurification,Food,29.751278,2,-95.831777,Yelp,"Food, water, sheltering",77494
Natural Spring Water Filtration,waterpurification,Food,29.64766,2,-95.678551,Yelp,"Food, water, sheltering",77498
HydroCleanH2O,waterpurification,Food,29.9147118,2,-95.7134967,Yelp,"Food, water, sheltering",77433
Sparkletts Water,waterdelivery,Food,29.73648,2,-95.7772,Yelp,"Food, water, sheltering",77450
Food Truck Delivery,fooddeliveryservices,Food,30.15752,2,-95.45578,Yelp,"Food, water, sheltering",77380
Ballard Water Well Co,waterpurification,Food,30.44231,2,-95.44256,Yelp,"Food, water, sheltering",77303
Citizens For Animal Protection,animalshelters,Shelter,29.7836365,2,-95.6846234,Google,"Food, water, sheltering",77094
Pasadena Animal Shelter,animalshelters,Shelter,29.6337886,2,-95.18164,Google,"Food, water, sheltering",77504
Special Pals,animalshelters,Shelter,29.8279294,2,-95.702105,Google,"Food, water, sheltering",77449
Sugar Land Animal Services,animalshelters,Shelter,29.6251836,2,-95.6152339,Google,"Food, water, sheltering",77478
BARC Animal Shelter and Adoptions,animalshelters,Shelter,29.7921432,2,-95.3446867,Google,"Food, water, sheltering",77009
City of Pearland Animal Services,animalshelters,Shelter,29.571776,2,-95.278163,Google,"Food, water, sheltering",77581
La Porte Animal Shelter,animalshelters,Shelter,29.6652134,2,-95.0629495,Google,"Food, water, sheltering",77571
South Houston Animal Shelter,animalshelters,Shelter,29.6702409,2,-95.2366349,Google,"Food, water, sheltering",77587
Bayou Animal Services,animalshelters,Shelter,29.4715152,2,-95.0535266,Google,"Food, water, sheltering",77573
Annie's Angels Texas Rescue,animalshelters,Shelter,29.6389738,2,-95.5490461,Google,"Food, water, sheltering",77477
Bay Area Pet Adoptions,animalshelters,Shelter,29.4758365,2,-94.9779936,Google,"Food, water, sheltering",77539
Seabrook Animal Shelter,animalshelters,Shelter,29.5846795,2,-95.0151381,Google,"Food, water, sheltering",77586
Houston Humane Society,animalshelters,Shelter,29.5911777,2,-95.4290899,Google,"Food, water, sheltering",77053
Friends For Life,animalshelters,Shelter,29.8061058,2,-95.3986651,Google,"Food, water, sheltering",77008
Veterinary Public Health,animalshelters,Shelter,29.8744053,2,-95.3742534,Google,"Food, water, sheltering",77076
League City Animal Control,animalshelters,Shelter,29.5164322,2,-95.0927594,Google,"Food, water, sheltering",77573
Miniature Schnauzer Rescue of Houston,animalshelters,Shelter,30.0132666,2,-95.4591351,Google,"Food, water, sheltering",77090
Missouri City Animal Shelter,animalshelters,Shelter,29.6052629,2,-95.5312296,Google,"Food, water, sheltering",77489
Sagemont Park Community Center,communitycenters,Shelter,29.5999026,2,-95.2170033,Google,"Food, water, sheltering",77089
Kingwood Community Center,communitycenters,Shelter,30.0544559,2,-95.1850921,Google,"Food, water, sheltering",77345
Richard & Meg Weekley Community Center,communitycenters,Shelter,29.9001285,2,-95.7042056,Google,"Food, water, sheltering",77095
Hackberry Community Center,communitycenters,Shelter,29.693084,2,-95.6034068,Google,"Food, water, sheltering",77072
Juergen's Hall Community Center,communitycenters,Shelter,29.9703271,2,-95.6985595,Google,"Food, water, sheltering",77429
Clear Lake City Community Association,communitycenters,Shelter,29.5602827,2,-95.1200111,Google,"Food, water, sheltering",77058
Pep Mueller Community Center,communitycenters,Shelter,29.9146585,2,-95.3811488,Google,"Food, water, sheltering",77037
Mangum-Howell Center,communitycenters,Shelter,29.922105,2,-95.4559343,Google,"Food, water, sheltering",77038
BakerRipley Gulfton Sharpstown Campus,communitycenters,Shelter,29.7108426,2,-95.4978141,Google,"Food, water, sheltering",77081
Alvin D. Baggett Community Center,communitycenters,Shelter,29.7421254,2,-95.2368597,Google,"Food, water, sheltering",77547
Tidwell Community Center,communitycenters,Shelter,29.851429,2,-95.3040349,Google,"Food, water, sheltering",77016
Alief Community Center,communitycenters,Shelter,29.7027995,2,-95.5888478,Google,"Food, water, sheltering",77072
Missouri City Community Center,communitycenters,Shelter,29.6053799,2,-95.5292848,Google,"Food, water, sheltering",77489
Emancipation Community Center,communitycenters,Shelter,29.7357077,2,-95.3643926,Google,"Food, water, sheltering",77002
Charlton Community Center,communitycenters,Shelter,29.6876791,2,-95.273939,Google,"Food, water, sheltering",77017
Riley Chambers Community Center,communitycenters,Shelter,29.8672658,2,-95.0750325,Google,"Food, water, sheltering",77562
North East Community Center,communitycenters,Shelter,29.874297,2,-95.3351747,Google,"Food, water, sheltering",77093
Lakewood Community Center,communitycenters,Shelter,29.8405462,2,-95.26774,Google,"Food, water, sheltering",77078
Mason Community Center,communitycenters,Shelter,29.7237081,2,-95.2946102,Google,"Food, water, sheltering",77023
Marian Park Community Center,communitycenters,Shelter,29.6596247,2,-95.5232353,Google,"Food, water, sheltering",77071
The Life Center for the Homeless,homelessshelters,Shelter,29.831798,2,-95.4026064,Google,"Food, water, sheltering",77022
Star of Hope,homelessshelters,Shelter,29.7605512,2,-95.3514427,Google,"Food, water, sheltering",77010
SEARCH Homeless Services,homelessshelters,Shelter,29.756918,2,-95.351359,Google,"Food, water, sheltering",77003
Star Of Hope,homelessshelters,Shelter,29.657786,2,-95.393674,Google,"Food, water, sheltering",77051
Star of Hope - Women & Family Emergency Shelter,homelessshelters,Shelter,29.7533862,2,-95.3490884,Google,"Food, water, sheltering",77003
Spirit Key Inc.,homelessshelters,Shelter,29.9322442,2,-95.4800575,Google,"Food, water, sheltering",77086
Sonrise Shelter,homelessshelters,Shelter,29.8914883,2,-95.3081533,Google,"Food, water, sheltering",77016
Cornerstone Community Campus,homelessshelters,Shelter,29.6579444,2,-95.3916625,Google,"Food, water, sheltering",77051
Red Shield Lodge,homelessshelters,Shelter,29.7815685,2,-95.3649813,Google,"Food, water, sheltering",77009
Bay Area Homeless Services,homelessshelters,Shelter,29.7294493,2,-95.0083808,Google,"Food, water, sheltering",77520
Star of Hope Men's Shelter Entrance,homelessshelters,Shelter,29.7605468,2,-95.3514872,Google,"Food, water, sheltering",77010
Wheel House,homelessshelters,Shelter,29.6982321,2,-95.1249631,Google,"Food, water, sheltering",77536
Bay Area Turning Point,homelessshelters,Shelter,29.533515,2,-95.1214328,Google,"Food, water, sheltering",77598
Turning Point Center,homelessshelters,Shelter,29.800064,2,-95.481303,Google,"Food, water, sheltering",77055
Covenant House Texas,homelessshelters,Shelter,29.743097,2,-95.392912,Google,"Food, water, sheltering",77006
Open Door Mission,homelessshelters,Shelter,29.7404442,2,-95.3171141,Google,"Food, water, sheltering",77011
The Beacon,homelessshelters,Shelter,29.7590984,2,-95.359581,Google,"Food, water, sheltering",77010
Volunteers of America,homelessshelters,Shelter,29.8114008,2,-95.3207126,Google,"Food, water, sheltering",77026
Sarah's House,homelessshelters,Shelter,29.6733891,2,-95.2021576,Google,"Food, water, sheltering",77502
A Caring Safe Place Inc.,homelessshelters,Shelter,29.777751,2,-95.344558,Google,"Food, water, sheltering",77201
"Aquamundo, Llc & Aquamundo Alkaline Water Store",waterpurification,Food,29.8041372,2,-95.4856291,Google,"Food, water, sheltering",77055
East water purification plant,waterpurification,Food,29.7466762,2,-95.2131461,Google,"Food, water, sheltering",77547
Aqua General Inc,waterpurification,Food,29.6769217,2,-95.399229,Google,"Food, water, sheltering",77054
Northeast Water Purification Plant (NEWPP),waterpurification,Food,29.933747,2,-95.197667,Google,"Food, water, sheltering",77044
Southeast Water Purification Plant City of Houston,waterpurification,Food,29.6281963,2,-95.1500893,Google,"Food, water, sheltering",77505
Rainbow Water Purification,waterpurification,Food,29.9470667,2,-95.5592015,Google,"Food, water, sheltering",77064
MECO,waterpurification,Food,29.6379027,2,-95.5817207,Google,"Food, water, sheltering",77477
Clean Water Solutions,waterpurification,Food,29.7470131,2,-95.4865194,Google,"Food, water, sheltering",77057
Eco Residential,waterpurification,Food,29.5821811,2,-95.7607832,Google,"Food, water, sheltering",77406
AtmoSpark Technologies,waterpurification,Food,29.7613625,2,-95.4791738,Google,"Food, water, sheltering",77056
Yaia Water,waterpurification,Food,29.7967984,2,-95.4113658,Google,"Food, water, sheltering",77008
Ultra Pure Solutions,waterpurification,Food,29.7477174,2,-95.3572785,Google,"Food, water, sheltering",77010
"Ultrapure & Industrial Services, LLC.",waterpurification,Food,29.770742,2,-95.276645,Google,"Food, water, sheltering",77029
Pure Water Solutions,waterpurification,Food,29.6534442,2,-95.2427992,Google,"Food, water, sheltering",77587
Newport Surface H2O Plant,waterpurification,Food,29.9257489,2,-95.0894091,Google,"Food, water, sheltering",77044
Drinking Water Solution,waterpurification,Food,29.6374526,2,-95.5425823,Google,"Food, water, sheltering",77477
Aqua Life of Houston,waterpurification,Food,29.7909654,2,-95.7170195,Google,"Food, water, sheltering",77094
SpaceWater Systems,waterpurification,Food,29.849027,2,-95.494424,Google,"Food, water, sheltering",77092
Genesis water industries,waterpurification,Food,29.7836331,2,-95.5936494,Google,"Food, water, sheltering",77079
Hydrosolaeris,waterpurification,Food,29.9931063,2,-95.4900634,Google,"Food, water, sheltering",77068
Houston Food Bank,foodbanks,Food,29.7810067,2,-95.2747503,Google,"Food, water, sheltering",77029
North Channel Assistance Ministries Food Pantry,foodbanks,Food,29.7763886,2,-95.1785138,Google,"Food, water, sheltering",77015
African/American Fellowship Foodbank,foodbanks,Food,29.6020428,2,-95.5064603,Google,"Food, water, sheltering",77489
Love In Action Church,foodbanks,Food,29.6880741,2,-95.3901618,Google,"Food, water, sheltering",77054
Faith Center,foodbanks,Food,29.7149517,2,-95.5486156,Google,"Food, water, sheltering",77042
City Park Food & Beverage Services,foodbanks,Food,29.7404196,2,-95.3438069,Google,"Food, water, sheltering",77003
Faith Center - Food Pantry & Clothes Closet,foodbanks,Food,29.8035925,2,-95.49345,Google,"Food, water, sheltering",77055
Heights Interfaith Ministries Food Pantry,foodbanks,Food,29.7897141,2,-95.3745733,Google,"Food, water, sheltering",77009
East Spring Branch Food Pantry,foodbanks,Food,29.794392,2,-95.485748,Google,"Food, water, sheltering",77055
Alvin Community Food Pantry,foodbanks,Food,29.412922,2,-95.253624,Google,"Food, water, sheltering",77517
Servant of Nations,foodbanks,Food,29.7296952,2,-95.4998884,Google,"Food, water, sheltering",77063
CAM Food Pantry,foodbanks,Food,29.938163,2,-95.629226,Google,"Food, water, sheltering",77065
Southeast Area Ministries,foodbanks,Food,29.657299,2,-95.230572,Google,"Food, water, sheltering",77587
St. Vincent De Paul Catholic Church,foodbanks,Food,29.7055981,2,-95.4279539,Google,"Food, water, sheltering",77005
"Rescue Bank, a Program of GreaterGood.org",foodbanks,Food,29.7836363,2,-95.5936667,Google,"Food, water, sheltering",77079
Avalos Claudia,foodbanks,Food,29.7201457,2,-95.49932,Google,"Food, water, sheltering",77081
West Houston Assistance Ministries,foodbanks,Food,29.7307447,2,-95.5603333,Google,"Food, water, sheltering",77042
Spring Woodlands Church,foodbanks,Food,30.0803825,2,-95.4253348,Google,"Food, water, sheltering",77373
Ozarka Bottled Water Delivery Houston,waterdelivery,Food,29.6690856,2,-95.4048573,Google,"Food, water, sheltering",77054
Gladden Bottled Water Delivery Houston,waterdelivery,Food,29.7458251,2,-95.4578779,Google,"Food, water, sheltering",77027
Harris-Galveston Subsidence District,watersuppliers,Water Infrastructure,29.5381653,2,-95.1524169,Google,"Food, water, sheltering",77598
SignatureCare Emergency Center - The Heights,emergencyrooms,Public Health,29.80113305,3,-95.42545706,Yelp,Health and medical,77008
Elite Care 24 Hour Emergency Center,emergencyrooms,Public Health,29.71787,3,-95.41747,Yelp,Health and medical,77005
Advanced Asthma & Allergy Center,medcenters,Public Health,29.70435,3,-95.44079,Yelp,Health and medical,77005
Memorial Heights Emergency Center,emergencyrooms,Public Health,29.770388,3,-95.401565,Yelp,Health and medical,77007
MD Anderson Cancer Center,hospitals,Public Health,29.70757333,3,-95.39639833,Yelp,Health and medical,77030
Texas Medical Center,medcenters,Public Health,29.7104304,3,-95.39762818,Yelp,Health and medical,77030
Texas Children's Hospital - Main Campus,hospitals,Public Health,29.707751,3,-95.401635,Yelp,Health and medical,77030
Houston Methodist Hospital,hospitals,Public Health,29.7101567,3,-95.4002369,Yelp,Health and medical,77030
The Woman's Hospital Of Texas,hospitals,Public Health,29.6932,3,-95.40171,Yelp,Health and medical,77054
Pasha Snoring & Sinus Center,medcenters,Public Health,29.73546433,3,-95.41694641,Yelp,Health and medical,77098
Houston Medical Imaging,medcenters,Public Health,29.734493,3,-95.426872,Yelp,Health and medical,77098
Memorial Hermann-Texas Medical Center,hospitals,Public Health,29.71473053,3,-95.39679363,Yelp,Health and medical,77030
aCremation,cremationservices,Fatality Management,29.759965,3,-95.362201,Yelp,Health and medical,77010
Methodist Outpatient Center,hospitals,Public Health,29.71273,3,-95.39934,Yelp,Health and medical,77030
Integrity Funeral Care,cremationservices,Fatality Management,29.80894,3,-95.44911,Yelp,Health and medical,77008
The Marriage You Want,c_and_mh,Public Health,29.8151228,3,-95.4448793,Yelp,Health and medical,77018
Memorial Hermann Medical Plaza,medcenters,Public Health,29.71529496,3,-95.39668869,Yelp,Health and medical,77030
Children's Memorial Hermann Hospital,hospitals,Public Health,29.71473053,3,-95.39679363,Yelp,Health and medical,77030
Park Plaza Hospital,hospitals,Public Health,29.72271919,3,-95.38754272,Yelp,Health and medical,77004
Michael E Debakey VA Medical Center,medcenters,Public Health,29.70552,3,-95.38844,Yelp,Health and medical,77004
Temporary Home Care,homehealthcare,Public Health,29.68824,3,-95.52776,Yelp,Health and medical,77036
Ben Taub General Hospital,hospitals,Public Health,29.71058,3,-95.3934,Yelp,Health and medical,77030
CHI St. Luke's Health Baylor St Luke's Medical Center,emergencyrooms,Public Health,29.70785,3,-95.40053,Yelp,Health and medical,77030
Ascent Emergency Medical Center,emergencyrooms,Public Health,29.70546,3,-95.38536,Yelp,Health and medical,77004
Leanne Peterson,c_and_mh,Public Health,29.733512,3,-95.3929519,Yelp,Health and medical,77006
"Annika Ziegler, LCSW",c_and_mh,Public Health,29.81128,3,-95.4243,Yelp,Health and medical,77008
Jamie Leonard MEd LPC-S,c_and_mh,Public Health,29.763494,3,-95.4600335,Yelp,Health and medical,77056
St Joseph Medical Center,hospitals,Public Health,29.74802,3,-95.36608,Yelp,Health and medical,77002
Brandon Peters,c_and_mh,Public Health,29.74612,3,-95.39954,Yelp,Health and medical,77019
Memorial Hermann Greater Heights Hospital,hospitals,Public Health,29.8115,3,-95.43037,Yelp,Health and medical,77008
Legacy Community Health - Montrose Clinic,medcenters,Public Health,29.74489,3,-95.39424,Yelp,Health and medical,77006
John C Bartley Psychotherapy,c_and_mh,Public Health,29.7799311,3,-95.4575503,Yelp,Health and medical,77056
Baylor St. Luke's Emergency Center-Holcombe,emergencyrooms,Public Health,29.70533,3,-95.4213,Yelp,Health and medical,77030
"Associates In Medicine, PA",medcenters,Public Health,29.74985,3,-95.44931,Yelp,Health and medical,77027
TIRR Memorial Hermann,hospitals,Public Health,29.7093,3,-95.39419,Yelp,Health and medical,77030
Lyndon B Johnson General Hospital,hospitals,Public Health,29.81143,3,-95.31094,Yelp,Health and medical,77026
Methodist Emergency Care Center,medcenters,Public Health,29.72998578,3,-95.41956107,Yelp,Health and medical,77098
John P. McGovern TMC Commons,medcenters,Public Health,29.70943069,3,-95.39796448,Yelp,Health and medical,77030
The Center for Marriage & Family Relationships,c_and_mh,Public Health,29.717068,3,-95.459297,Yelp,Health and medical,77401
TMC John P McGovern Campus,medcenters,Public Health,29.70335477,3,-95.38294959,Yelp,Health and medical,77004
SignatureCare Emergency Center - Bellaire,emergencyrooms,Public Health,29.722885,3,-95.4679746,Yelp,Health and medical,77401
Baylor College of Medicine - McNair Campus,medcenters,Public Health,29.69874143,3,-95.3942427,Yelp,Health and medical,77030
Concentra Medical Centers,medcenters,Public Health,29.7853,3,-95.45604,Yelp,Health and medical,77008
Hermann Drive Surgical Hospital,hospitals,Public Health,29.718342,3,-95.382684,Yelp,Health and medical,77004
Americas Best Value Inn-Medical Center Downtown,medcenters,Public Health,29.7167836,3,-95.377043,Yelp,Health and medical,77004
Planned Parenthood - Prevention Park Health Center,medcenters,Public Health,29.7256151,3,-95.3347851,Yelp,Health and medical,77023
The Cope Clinic,c_and_mh,Public Health,29.7515515,3,-95.5588566,Yelp,Health and medical,77042
"Jia Wang, MD",c_and_mh,Public Health,29.7241,3,-95.38778,Yelp,Health and medical,77004
Texas International Endoscopy Center,medcenters,Public Health,29.70953,3,-95.403,Yelp,Health and medical,77030
MD Anderson Proton Therapy Center,hospitals,Public Health,29.69528,3,-95.39846,Yelp,Health and medical,77030
Art of Living,c_and_mh,Public Health,29.808462,3,-95.457882,Yelp,Health and medical,77092
Garden Terrace of Houston,medcenters,Public Health,29.69154,3,-95.39185,Yelp,Health and medical,77054
Houston Adult Psychiatry,c_and_mh,Public Health,29.81214997,3,-95.43871958,Yelp,Health and medical,77018
Houston Hospital For Specialized Surgery,hospitals,Public Health,29.72403526,3,-95.38381195,Yelp,Health and medical,77004
Kindred Hospital Houston Medical Center,hospitals,Public Health,29.71294957,3,-95.39927609,Yelp,Health and medical,77030
St Joseph's Medical Center in The Heights,medcenters,Public Health,29.80316,3,-95.40382,Yelp,Health and medical,77008
Texas Children's West Tower,hospitals,Public Health,29.7078576,3,-95.4017694,Yelp,Health and medical,77030
Navigation Medical Center,medcenters,Public Health,29.75595,3,-95.33971,Yelp,Health and medical,77003
Gramercy Outpatient Surgery Center,medcenters,Public Health,29.70394,3,-95.42133,Yelp,Health and medical,77030
Staybridge Suites Houston - Medical Center,medcenters,Public Health,29.68829478,3,-95.41957902,Yelp,Health and medical,77054
Addiction Counseling Associates,c_and_mh,Public Health,29.73429904,3,-95.42326704,Yelp,Health and medical,77098
Victim's Assistance Center,c_and_mh,Public Health,29.75876,3,-95.35923,Yelp,Health and medical,77010
Vein Clinics of America,medcenters,Public Health,29.729568,3,-95.419864,Yelp,Health and medical,77098
Southeast Texas Crematory,cremationservices,Fatality Management,29.96800484,3,-95.41442379,Yelp,Health and medical,77073
Taylor Recovery Center,c_and_mh,Public Health,29.81189,3,-95.32123,Yelp,Health and medical,77026
The Council on Recovery,c_and_mh,Public Health,29.7640297,3,-95.4020441,Yelp,Health and medical,77007
"Kathleen Gallentine, MD",c_and_mh,Public Health,29.73467,3,-95.42504,Yelp,Health and medical,77098
Medical Center Dermatology,medcenters,Public Health,29.6992934,3,-95.4099534,Yelp,Health and medical,77030
The Lovett Center,c_and_mh,Public Health,29.7438297,3,-95.390007,Yelp,Health and medical,77006
Fannin Surgicare,medcenters,Public Health,29.69326,3,-95.40283,Yelp,Health and medical,77054
Concentra Medical Centers,medcenters,Public Health,29.6705288,3,-95.262654,Yelp,Health and medical,77017
Nurses At Heart Home Healthcare Services,homehealthcare,Public Health,29.75322,3,-95.40258,Yelp,Health and medical,77019
"Brandon Wheeler, MA LMFT - Wheelhouse Counseling",c_and_mh,Public Health,29.7345274,3,-95.4280266,Yelp,Health and medical,77046
University of Texas Health Science Center at Houston,medcenters,Public Health,29.71814,3,-95.38811,Yelp,Health and medical,77004
Texas Children's Leopold L. Meyer Building,hospitals,Public Health,29.699333,3,-95.404922,Yelp,Health and medical,77030
Memorial Hermann,hospitals,Public Health,29.73467,3,-95.42249,Yelp,Health and medical,77098
Post-Health Home Care,homehealthcare,Public Health,29.79882269,3,-95.41462462,Yelp,Health and medical,77008
Memorial Hermann Orthopedic & Spine Hospital,hospitals,Public Health,29.723669,3,-95.46057,Yelp,Health and medical,77401
Fifth Ward Pregnancy Help Center,medcenters,Public Health,29.7753633,3,-95.3113751,Yelp,Health and medical,77020
Park Plaza Outpatient Imaging Center,medcenters,Public Health,29.7241,3,-95.38778,Yelp,Health and medical,77004
Senior Helpers,homehealthcare,Public Health,29.82019,3,-95.46271,Yelp,Health and medical,77092
Life Skills Therapy,homehealthcare,Public Health,29.7371744,3,-95.43962181,Yelp,Health and medical,77046
Mischer Neuroscience Associates - Texas Medical Center,medcenters,Public Health,29.71512,3,-95.3973199,Yelp,Health and medical,77030
Kindred Hospital The Heights,hospitals,Public Health,29.809164,3,-95.430896,Yelp,Health and medical,77008
Houston Galveston Institute,c_and_mh,Public Health,29.7345255,3,-95.4231772,Yelp,Health and medical,77098
"Edelman Miriam, LCSW, LMFT, BCD",c_and_mh,Public Health,29.722813,3,-95.416588,Yelp,Health and medical,77005
Advanced Endocrinolgy and Diabetes Clinic,medcenters,Public Health,29.69466644,3,-95.40167559,Yelp,Health and medical,77054
Encore Caregivers,homehealthcare,Public Health,29.78299,3,-95.4766099,Yelp,Health and medical,77024
"Newton Hightower, Lcsw",c_and_mh,Public Health,29.722505,3,-95.417845,Yelp,Health and medical,77005
"Clinic for Adult Attention Problems, PA",c_and_mh,Public Health,29.73220825,3,-95.41374207,Yelp,Health and medical,77098
Houston Metro Orthopedic and Spine Surgery,medcenters,Public Health,29.73197,3,-95.44531,Yelp,Health and medical,77046
The Vein Specialist Of Houston,medcenters,Public Health,29.8117063,3,-95.4303253,Yelp,Health and medical,77008
Houston Medical Group,medcenters,Public Health,29.741732,3,-95.375313,Yelp,Health and medical,77002
Harris County Hospital District,hospitals,Public Health,29.68673515,3,-95.38652039,Yelp,Health and medical,77054
Patient Caregivers LLC,homehealthcare,Public Health,29.72509499,3,-95.444381,Yelp,Health and medical,77046
Cook Counseling Services,c_and_mh,Public Health,29.81217525,3,-95.44168502,Yelp,Health and medical,77018
Friendly Faces Senior Care,homehealthcare,Public Health,29.746242,3,-95.4618162,Yelp,Health and medical,77056
Rosines Ruth Lmsw-Acp,c_and_mh,Public Health,29.717674,3,-95.459304,Yelp,Health and medical,77401
A Sacred Choice,cremationservices,Fatality Management,29.80709,3,-95.46066,Yelp,Health and medical,77092
Family Centered Health Care,medcenters,Public Health,29.66489,3,-95.3679,Yelp,Health and medical,77051
St. Luke's Medical Tower,medcenters,Public Health,29.709183,3,-95.4020132,Yelp,Health and medical,77030
Home Care Assistance - Houston,homehealthcare,Public Health,29.7785505,3,-95.5485196,Yelp,Health and medical,77042
MD Anderson Radiology Outpatient Clinic,hospitals,Public Health,29.705986,3,-95.3944931,Yelp,Health and medical,77030
VCare Clinics,medcenters,Public Health,29.67612,3,-95.27639,Yelp,Health and medical,77017
St. Luke's Episcopal Health System,hospitals,Public Health,29.70916,3,-95.40203,Yelp,Health and medical,77030
Lehman Mark PHD & Associates P C,c_and_mh,Public Health,29.81049728,3,-95.4342041,Yelp,Health and medical,77008
Brittani Persha Counseling Child and Family Therapy Services,c_and_mh,Public Health,29.7794106,3,-95.6071536,Yelp,Health and medical,77079
Smith Clinic,medcenters,Public Health,29.68598468,3,-95.38783749,Yelp,Health and medical,77054
Nova Medical Centers,medcenters,Public Health,29.6803719,3,-95.4251024,Yelp,Health and medical,77025
Home Instead Senior Care,homehealthcare,Public Health,29.5935814,3,-95.1936838,Yelp,Health and medical,77089
Peter Cousins PhD ABPP,c_and_mh,Public Health,29.733118,3,-95.418052,Yelp,Health and medical,77098
Caring Senior Service of Houston,homehealthcare,Public Health,30.03355,3,-95.43089,Yelp,Health and medical,77090
The Adolescent Center & Mental Health Services,c_and_mh,Public Health,29.7329696,3,-95.4194012,Yelp,Health and medical,77098
Texas Pain Consultants,medcenters,Public Health,29.71202,3,-95.39953,Yelp,Health and medical,77030
Sheila's Angels In Home Care,homehealthcare,Public Health,29.552713,3,-95.118785,Yelp,Health and medical,77058
"Life Savers Emergency Room in Houston, TX",emergencyrooms,Public Health,29.821631,3,-95.410395,Yelp,Health and medical,77018
Rheumatology Center of Houston,medcenters,Public Health,29.72408676,3,-95.38778687,Yelp,Health and medical,77004
Gulgate Health Center,medcenters,Public Health,29.70062524,3,-95.28556953,Yelp,Health and medical,77087
Memorial Park Psychiatry,c_and_mh,Public Health,29.7668972,3,-95.4215367,Yelp,Health and medical,77007
Continuum Integrated Health Services,c_and_mh,Public Health,29.67616844,3,-95.42530823,Yelp,Health and medical,77025
Houston Methodist Emergency Care Center at Kirby,emergencyrooms,Public Health,29.72971,3,-95.42011,Yelp,Health and medical,77098
Nova Medical Centers - Houston Post Oak,medcenters,Public Health,29.787734,3,-95.4553619,Yelp,Health and medical,77008
Apria Healthcare,homehealthcare,Public Health,29.66701,3,-95.41387,Yelp,Health and medical,77054
Breast Cancer Detection Ctr of St Joseph Hospital,hospitals,Public Health,29.747,3,-95.36581,Yelp,Health and medical,77002
Quentin Mease Community Hospital,hospitals,Public Health,29.71146774,3,-95.35949707,Yelp,Health and medical,77021
MHMRA,c_and_mh,Public Health,29.808766,3,-95.44654,Yelp,Health and medical,77008
re:MIND,c_and_mh,Public Health,29.74754333,3,-95.4527359,Yelp,Health and medical,77027
Select Medical,hospitals,Public Health,29.70654678,3,-95.40748596,Yelp,Health and medical,77030
Sleep Center At Kirby,medcenters,Public Health,29.66884598,3,-95.41292511,Yelp,Health and medical,77054
Houston Pain Center,medcenters,Public Health,29.69614332,3,-95.41371083,Yelp,Health and medical,77030
UT Imaging Houston LLP,medcenters,Public Health,29.70723,3,-95.46092,Yelp,Health and medical,77401
Monitor Medical,medcenters,Public Health,29.72326,3,-95.38844,Yelp,Health and medical,77004
Cadenhead Lyle R Phd,c_and_mh,Public Health,29.74146461,3,-95.38975525,Yelp,Health and medical,77006
South Central Houston Community Health Center,medcenters,Public Health,29.65814,3,-95.33726,Yelp,Health and medical,77033
"Orthopaedic Associates, LLP",medcenters,Public Health,29.7484376,3,-95.3669451,Yelp,Health and medical,77002
MHMRA,c_and_mh,Public Health,29.69449056,3,-95.325244,Yelp,Health and medical,77087
Sun Behavioral Houston,c_and_mh,Public Health,29.690399,3,-95.40072,Yelp,Health and medical,77054
Texas Children's Pediatrics Ripley House,hospitals,Public Health,29.75153,3,-95.32877,Yelp,Health and medical,77003
Jeanne Dewey Psychotherapy,c_and_mh,Public Health,29.73732,3,-95.42428,Yelp,Health and medical,77098
Epic Health Services,medcenters,Public Health,29.73071,3,-95.4271,Yelp,Health and medical,77098
Texas Ambulatory Surgical Center,medcenters,Public Health,29.80909,3,-95.41047,Yelp,Health and medical,77008
Stubits Eva PhD,c_and_mh,Public Health,29.7506322,3,-95.4509082,Yelp,Health and medical,77027
"Catherine Stevenson, MD",c_and_mh,Public Health,29.73509407,3,-95.390625,Yelp,Health and medical,77006
"Bernadette P Smith, LPC",c_and_mh,Public Health,29.74189,3,-95.30963,Yelp,Health and medical,77011
Plaza Specialty Hospital,hospitals,Public Health,29.7241962,3,-95.3869588,Yelp,Health and medical,77004
Christ-Rice Counseling & Consulting,c_and_mh,Public Health,29.72486,3,-95.41798,Yelp,Health and medical,77005
Yasman Mostajeran,c_and_mh,Public Health,29.79435,3,-95.40955,Yelp,Health and medical,77008
O'doherty Denise Lpc,c_and_mh,Public Health,29.73732,3,-95.42428,Yelp,Health and medical,77098
Stefanie Barthmare LPC,c_and_mh,Public Health,29.7204208,3,-95.415451,Yelp,Health and medical,77005
"Edward J Wilson, MEd, CHt, LPC",c_and_mh,Public Health,29.7251873,3,-95.4211731,Yelp,Health and medical,77098
Houston Ketamine Center,c_and_mh,Public Health,29.74985,3,-95.44931,Yelp,Health and medical,77027
Eros Medical Group,medcenters,Public Health,29.75449098,3,-95.45037881,Yelp,Health and medical,77027
"Xue Yang, LCSW - The Trauma Recovery Place",c_and_mh,Public Health,29.7261493,3,-95.430241,Yelp,Health and medical,77046
Heights Anxiety and Depression Center,c_and_mh,Public Health,29.81128,3,-95.4243,Yelp,Health and medical,77008
"Lisa Pearson, LPC",c_and_mh,Public Health,29.82383526,3,-95.41103482,Yelp,Health and medical,77018
Ontra Giselle Lpc,c_and_mh,Public Health,29.7377,3,-95.44219,Yelp,Health and medical,77027
SynergenX Health | Houston Low T Clinic,medcenters,Public Health,29.7338556,3,-95.4409856,Yelp,Health and medical,77046
Houston Psychological Associates,c_and_mh,Public Health,29.730223,3,-95.440819,Yelp,Health and medical,77046
"Carole A. Busick, PhD",c_and_mh,Public Health,29.7364006,3,-95.3891983,Yelp,Health and medical,77006
Allery & Asthma Care Center,medcenters,Public Health,29.810778,3,-95.430697,Yelp,Health and medical,77008
Blakeny Counseling,c_and_mh,Public Health,29.7383452,3,-95.4606827,Yelp,Health and medical,77027
Burkhead James M MD,hospitals,Public Health,29.69336,3,-95.4029599,Yelp,Health and medical,77054
Concentra Medical Centers Administration,medcenters,Public Health,29.66898009,3,-95.41290097,Yelp,Health and medical,77054
Harris Health System,hospitals,Public Health,29.68673515,3,-95.38652039,Yelp,Health and medical,77054
Global Sleep,medcenters,Public Health,29.6972729,3,-95.4165635,Yelp,Health and medical,77030
Spectrum Center,c_and_mh,Public Health,29.8109861,3,-95.4375013,Yelp,Health and medical,77008
Tulip Cremation,cremationservices,Fatality Management,29.752554,3,-95.3704009,Yelp,Health and medical,77002
Medical Associates Of Houston,medcenters,Public Health,29.7486213,3,-95.3670435,Yelp,Health and medical,77002
Mental Health Co-Op Anex,c_and_mh,Public Health,29.73681,3,-95.38606,Yelp,Health and medical,77006
Paramount Medical Imaging,medcenters,Public Health,29.67651213,3,-95.42526193,Yelp,Health and medical,77025
Grief Recovery Center,c_and_mh,Public Health,29.811331,3,-95.439455,Yelp,Health and medical,77008
Mi Doctor,hospitals,Public Health,29.6739882,3,-95.2770502,Yelp,Health and medical,77017
Rebellious Wellness Therapy,c_and_mh,Public Health,29.73351,3,-95.39295,Yelp,Health and medical,77006
El Centro de Coraz√≥n - Magnolia Health Center,c_and_mh,Public Health,29.73454857,3,-95.30107117,Yelp,Health and medical,77011
New Heights Associates,c_and_mh,Public Health,29.79008865,3,-95.39813995,Yelp,Health and medical,77008
St. Jude Visiting Nurses Home Health,homehealthcare,Public Health,29.8107987,3,-95.4376555,Yelp,Health and medical,77008
Center For Success and Independence,c_and_mh,Public Health,29.841409,3,-95.438726,Yelp,Health and medical,77018
Children's Memorial Hermann Hospital - ER,hospitals,Public Health,29.7144182,3,-95.3968972,Yelp,Health and medical,77030
Wilson Counseling,c_and_mh,Public Health,29.7176561,3,-95.4593337,Yelp,Health and medical,77401
Jamail Specialty Care Center,medcenters,Public Health,29.701366,3,-95.39269,Yelp,Health and medical,77030
AHF Healthcare Center - Houston,medcenters,Public Health,29.7241,3,-95.38778,Yelp,Health and medical,77004
Central Care Community Health Center,medcenters,Public Health,29.84127808,3,-95.42300415,Yelp,Health and medical,77018
Tri-Flexsi Home Health Care,homehealthcare,Public Health,29.72601,3,-95.37354,Yelp,Health and medical,77004
Eating Recovery Center - Houston,c_and_mh,Public Health,29.6986984,3,-95.4102753,Yelp,Health and medical,77030
Twelve Oakes Hospital,hospitals,Public Health,29.73103,3,-95.44511,Yelp,Health and medical,77046
US Healthworks Medical Group,medcenters,Public Health,29.68052,3,-95.3991439,Yelp,Health and medical,77054
Griswold Home Care - Houston,homehealthcare,Public Health,29.6626782,3,-95.5689024,Yelp,Health and medical,77031
SYNERGY HomeCare,homehealthcare,Public Health,29.98537,3,-95.49267,Yelp,Health and medical,77069
American Home Health Care,homehealthcare,Public Health,29.67619,3,-95.42534,Yelp,Health and medical,77025
Home Helpers,homehealthcare,Public Health,29.5812729,3,-95.2165031,Yelp,Health and medical,77089
Linke Nan Hall,c_and_mh,Public Health,29.74981,3,-95.45321,Yelp,Health and medical,77027
Home Instead Senior Care,homehealthcare,Public Health,29.679429,3,-95.4217095,Yelp,Health and medical,77025
Abba Gentle Healthcare,homehealthcare,Public Health,29.688188,3,-95.526631,Yelp,Health and medical,77036
Lone Star Children's Medical,medcenters,Public Health,29.81038,3,-95.4599099,Yelp,Health and medical,77092
SeniorBridge,homehealthcare,Public Health,29.688388,3,-95.528746,Yelp,Health and medical,77036
Senior Helpers,homehealthcare,Public Health,29.70614,3,-95.47512,Yelp,Health and medical,77081
United America Home Health Services,homehealthcare,Public Health,29.7236758,3,-95.5481932,Yelp,Health and medical,77042
Sahara Home Health Care,homehealthcare,Public Health,29.62575751,3,-95.61773763,Yelp,Health and medical,77478
Bell Tech Enterprises,homehealthcare,Public Health,29.7090879,3,-95.6437937,Yelp,Health and medical,77083
First Surgical Center,hospitals,Public Health,29.70949745,3,-95.46260834,Yelp,Health and medical,77401
Visiting Angels,homehealthcare,Public Health,29.88114,3,-95.64924,Yelp,Health and medical,77095
The Center for Creative Resources,c_and_mh,Public Health,29.7426038,3,-95.3898042,Yelp,Health and medical,77006
Tirr,hospitals,Public Health,29.69675,3,-95.41625,Yelp,Health and medical,77030
St. Hope Foundation,medcenters,Public Health,29.70529,3,-95.46005,Yelp,Health and medical,77401
Pediatric Home Healthcare,homehealthcare,Public Health,29.73071,3,-95.4271,Yelp,Health and medical,77098
Shu Tung MD,medcenters,Public Health,29.71512,3,-95.3973199,Yelp,Health and medical,77030
St Luke's Episcopal Health System,hospitals,Public Health,29.705376,3,-95.420823,Yelp,Health and medical,77030
Hallman Grady L MD,hospitals,Public Health,29.7074445,3,-95.4018366,Yelp,Health and medical,77030
MD Anderson Cancer Center,medcenters,Public Health,29.70434909,3,-95.39861865,Yelp,Health and medical,77030
My Radiant Beginnings,homehealthcare,Public Health,29.74502754,3,-95.82256317,Yelp,Health and medical,77494
Nunn Judy MA,c_and_mh,Public Health,29.73910713,3,-95.44215393,Yelp,Health and medical,77027
Denis Elena LCSW,c_and_mh,Public Health,29.75068,3,-95.45093,Yelp,Health and medical,77027
OptumHealth Behavioral,c_and_mh,Public Health,29.7463726,3,-95.45810729,Yelp,Health and medical,77027
The Harris Center For Mental Health and IDD,c_and_mh,Public Health,29.80904479,3,-95.44616137,Yelp,Health and medical,77008
Greater Houston Psychiatric Associates - Loop,c_and_mh,Public Health,29.7251606,3,-95.4569168,Yelp,Health and medical,77027
Algen Health,homehealthcare,Public Health,29.67855,3,-95.42114,Yelp,Health and medical,77025
Transition Home Healthcare,homehealthcare,Public Health,29.6641388,3,-95.4376565,Yelp,Health and medical,77025
Hauser Harris M MD PA,c_and_mh,Public Health,29.71707,3,-95.4593,Yelp,Health and medical,77401
Authentic Relational Counseling,c_and_mh,Public Health,29.631944,3,-95.594099,Yelp,Health and medical,77478
Home Care Assistance of North Houston,homehealthcare,Public Health,30.04683,3,-95.18182,Yelp,Health and medical,77345
Hospice Plus,homehealthcare,Public Health,29.70648,3,-95.46111,Yelp,Health and medical,77401
Hauser Clinic & Associates,c_and_mh,Public Health,29.71707,3,-95.4593,Yelp,Health and medical,77401
Amy Fuller PhD,c_and_mh,Public Health,29.7143087,3,-95.4538085,Yelp,Health and medical,77401
Marcia Lindsey,c_and_mh,Public Health,29.706481,3,-95.461112,Yelp,Health and medical,77401
"Benjamin Carrettin MA, NCC",c_and_mh,Public Health,29.71707,3,-95.4593,Yelp,Health and medical,77401
The Woodlands Behavioral Health And Wellness Center,c_and_mh,Public Health,30.1784519,3,-95.4788303,Yelp,Health and medical,77381
First Surgical Hospital,hospitals,Public Health,29.7099991,3,-95.4624634,Yelp,Health and medical,77401
Memorial Hermann,hospitals,Public Health,29.70648,3,-95.46111,Yelp,Health and medical,77401
"Sari Meltzer, PhD",c_and_mh,Public Health,29.717674,3,-95.459304,Yelp,Health and medical,77401
"Girling Health Care, Inc.",homehealthcare,Public Health,29.706842,3,-95.460542,Yelp,Health and medical,77401
Cancerdocs,homehealthcare,Public Health,29.69091,3,-95.1222499,Yelp,Health and medical,77536
Visiting Angels,homehealthcare,Public Health,29.54687,3,-95.12761,Yelp,Health and medical,77598
Apostle Home Health Care,homehealthcare,Public Health,29.5303054,3,-95.2029109,Yelp,Health and medical,77546
Touching Hearts at Home,homehealthcare,Public Health,29.620747,3,-95.6297716,Yelp,Health and medical,77478
BioPlenish,medcenters,Public Health,30.12012,3,-95.440803,Yelp,Health and medical,77380
Right at Home,homehealthcare,Public Health,29.6505135,3,-95.13739,Yelp,Health and medical,77505
Advocate Pediatric Home Care,homehealthcare,Public Health,30.324779,3,-95.463959,Yelp,Health and medical,77301
Coastal Staff Relief,homehealthcare,Public Health,29.0425714,3,-95.4523445,Yelp,Health and medical,77566
O'Brien Counseling Services Inc,counciling and mental health,Public Health,29.7764457,3,-95.7434406,Google,Health and medical,77450
Heartwood Counseling,counciling and mental health,Public Health,29.9981885,3,-95.5094705,Google,Health and medical,77069
"Jared DuPree, PhD, LMFT",counciling and mental health,Public Health,29.5229991,3,-95.0834376,Google,Health and medical,77573
Cancer Counseling Inc,counciling and mental health,Public Health,29.7335368,3,-95.4240337,Google,Health and medical,77098
The Relationship Wellness Center,counciling and mental health,Public Health,29.7341175,3,-95.3967774,Google,Health and medical,77006
Christway Counseling Center,counciling and mental health,Public Health,29.783229,3,-95.529077,Google,Health and medical,77080
Shield-Bearer Counseling Centers,counciling and mental health,Public Health,29.9535181,3,-95.5838837,Google,Health and medical,77070
Center for Islamic Counseling and Guidance,counciling and mental health,Public Health,29.7100892,3,-95.6448729,Google,Health and medical,77083
Shield-Bearer Counseling Centers,counciling and mental health,Public Health,30.0872656,3,-95.618049,Google,Health and medical,77375
Nick Finnegan Counseling Center,counciling and mental health,Public Health,29.740109,3,-95.434799,Google,Health and medical,77046
Cancer Counseling Inc,counciling and mental health,Public Health,29.7294957,3,-95.4124915,Google,Health and medical,77098
"Rebecca Smith, MA, LPC-S",counciling and mental health,Public Health,29.9889946,3,-95.4911568,Google,Health and medical,77068
Betty J Mc Carty Ms Lpc,counciling and mental health,Public Health,29.679626,3,-95.421708,Google,Health and medical,77025
Crosscreek Counseling Center,counciling and mental health,Public Health,29.760042,3,-95.362112,Google,Health and medical,77010
Southwest MHMRA Clinic,counciling and mental health,Public Health,29.67845,3,-95.5383613,Google,Health and medical,77036
Compass Counseling Solutions,counciling and mental health,Public Health,29.9620666,3,-95.5308752,Google,Health and medical,77066
Veteran Counseling,counciling and mental health,Public Health,29.7799269,3,-95.4576088,Google,Health and medical,77056
TrueSelf Transition,counciling and mental health,Public Health,29.7408078,3,-95.4856983,Google,Health and medical,77057
"Ms. Enod Gray, LCSW, CSAT, Level II EMDR",counciling and mental health,Public Health,29.737141,3,-95.433828,Google,Health and medical,77046
Moran Rose M,counciling and mental health,Public Health,29.763446,3,-95.41096,Google,Health and medical,77007
MedCenter TMJ,medcenters,Public Health,29.6995129,3,-95.4098941,Google,Health and medical,77030
Medcenter Suites,medcenters,Public Health,29.704552,3,-95.41177,Google,Health and medical,77030
Medcenter Ambulatory Surgery,medcenters,Public Health,29.6973509,3,-95.4163026,Google,Health and medical,77030
Texas Medical Center,medcenters,Public Health,29.709689,3,-95.397822,Google,Health and medical,77030
St. Joseph Medical Center,hospitals,Public Health,29.7478028,3,-95.3659865,Google,Health and medical,77002
HCA Houston Healthcare Northwest,hospitals,Public Health,30.0205658,3,-95.4426393,Google,Health and medical,77090
Harris County Hospital District,hospitals,Public Health,29.7738652,3,-95.360979,Google,Health and medical,77201
CHI St. Luke's Health‚ÄìSugar Land Hospital,hospitals,Public Health,29.6050365,3,-95.6197761,Google,Health and medical,77478
Hospital,hospitals,Public Health,29.8527143,3,-95.3839616,Google,Health and medical,77076
CHI St. Luke's Health‚ÄìThe Vintage Hospital,hospitals,Public Health,29.9893519,3,-95.5674709,Google,Health and medical,77070
Memorial Hermann Healthcare,hospitals,Public Health,29.6941917,3,-95.5219027,Google,Health and medical,77036
Hospital,hospitals,Public Health,29.9741783,3,-95.7021829,Google,Health and medical,77433
HCA Houston Healthcare North Cypress,hospitals,Public Health,29.9251,3,-95.63163,Google,Health and medical,77095
Houston Methodist Baytown Hospital,hospitals,Public Health,29.7691568,3,-94.9796029,Google,Health and medical,77520
Kindred Hospital Bay Area,hospitals,Public Health,29.6374927,3,-95.1604694,Google,Health and medical,77505
clear lake hospital,hospitals,Public Health,29.5423662,3,-95.1375062,Google,Health and medical,77598
Kindred Hospital Spring,hospitals,Public Health,30.02528,3,-95.435723,Google,Health and medical,77090
Memorial Hermann Pearland Hospital,hospitals,Public Health,29.5637754,3,-95.3892216,Google,Health and medical,77584
CHI St. Luke's Health‚ÄìPatients Medical Center,hospitals,Public Health,29.6412487,3,-95.1621433,Google,Health and medical,77505
Harris County Hospital District,hospitals,Public Health,29.7759964,3,-95.1762219,Google,Health and medical,77015
Memorial Hermann Convenient Care Center in Greater Heights,hospitals,Public Health,29.7744375,3,-95.3909486,Google,Health and medical,77007
Atrium Medical Center,hospitals,Public Health,29.6462964,3,-95.5882912,Google,Health and medical,77099
Red Oak Hospital,hospitals,Public Health,30.0257629,3,-95.4497886,Google,Health and medical,77090
UTMB Health League City Campus Hospital,hospitals,Public Health,29.481445,3,-95.098429,Google,Health and medical,77573
24 Hour Emergency Room - Convenient Care Center in Katy,emergencyrooms,Public Health,29.7035447,3,-95.7743496,Google,Health and medical,77450
St Michael's Emergency Rooms,emergencyrooms,Public Health,29.5975731,3,-95.6246038,Google,Health and medical,77478
Sublime Care Emergency Room,emergencyrooms,Public Health,30.070993,3,-95.455931,Google,Health and medical,77388
Excellence ER- East Houston,emergencyrooms,Public Health,29.807213,3,-95.1720049,Google,Health and medical,77049
Memorial Hermann Pearland Hospital Emergency Center,emergencyrooms,Public Health,29.5637754,3,-95.3892216,Google,Health and medical,77584
Houston Methodist Sugar Land Hospital Emergency Room,emergencyrooms,Public Health,29.5890748,3,-95.6311215,Google,Health and medical,77479
First Choice Emergency Room,emergencyrooms,Public Health,29.6780581,3,-95.1227185,Google,Health and medical,77505
Grace ER,emergencyrooms,Public Health,29.6375605,3,-95.2409023,Google,Health and medical,77075
Grand Parkway Emergency Center of OakBend Medical Center,emergencyrooms,Public Health,29.662322,3,-95.745185,Google,Health and medical,77407
First Choice Emergency Room,emergencyrooms,Public Health,29.539823,3,-95.534653,Google,Health and medical,77459
First Choice Emergency Room,emergencyrooms,Public Health,29.5588678,3,-95.3651748,Google,Health and medical,77584
First Choice Emergency Room,emergencyrooms,Public Health,29.5565973,3,-95.2663154,Google,Health and medical,77581
Houston Methodist Emergency Care Center in Sienna Plantation,emergencyrooms,Public Health,29.5435655,3,-95.5484187,Google,Health and medical,77459
Neighbors Emergency Center,emergencyrooms,Public Health,29.651265,3,-95.127923,Google,Health and medical,77505
Houston Methodist Emergency Care Center in Pearland,emergencyrooms,Public Health,29.5561866,3,-95.3986561,Google,Health and medical,77584
Clear Creek Emergency Room- A Village Emergency Center,emergencyrooms,Public Health,29.5134393,3,-95.0281461,Google,Health and medical,77565
Neighbors Emergency Center,emergencyrooms,Public Health,29.790274,3,-94.980362,Google,Health and medical,77521
Elite Care 24 Hour Emergency Room,emergencyrooms,Public Health,29.4718594,3,-95.0943326,Google,Health and medical,77573
UTMB Health Emergency Room - League City Campus,emergencyrooms,Public Health,29.4814868,3,-95.0977292,Google,Health and medical,77573
CHI St. Luke's Health‚ÄìSpringwoods Village Hospital: Emergency Room,emergencyrooms,Public Health,30.090422,3,-95.4491987,Google,Health and medical,77388
MedExpress Urgent Care,urgent_care,Public Health,29.8785433,3,-95.6550794,Google,Health and medical,77095
MedExpress Urgent Care,urgent_care,Public Health,29.8167059,3,-95.7698914,Google,Health and medical,77449
MedExpress Urgent Care,urgent_care,Public Health,29.6491618,3,-95.1720264,Google,Health and medical,77504
MedSpring Urgent Care - River Oaks,urgent_care,Public Health,29.7526381,3,-95.4035042,Google,Health and medical,77019
MedExpress Urgent Care,urgent_care,Public Health,29.5550322,3,-95.4025212,Google,Health and medical,77584
CareNow Urgent Care - Kingwood,urgent_care,Public Health,30.0697171,3,-95.2427567,Google,Health and medical,77339
MedSpring Urgent Care - Houston Heights,urgent_care,Public Health,29.7909718,3,-95.3981911,Google,Health and medical,77008
AFC Urgent Care West University,urgent_care,Public Health,29.7221279,3,-95.4421478,Google,Health and medical,77046
MedExpress Urgent Care,urgent_care,Public Health,29.7694488,3,-95.1853988,Google,Health and medical,77015
NextCare Urgent Care,urgent_care,Public Health,30.0690424,3,-95.2356266,Google,Health and medical,77339
CareNow Urgent Care - Cypress,urgent_care,Public Health,29.9101599,3,-95.6855146,Google,Health and medical,77095
CareNow Urgent Care - Friendswood,urgent_care,Public Health,29.5081169,3,-95.1870834,Google,Health and medical,77546
MedSpring Urgent Care - Memorial,urgent_care,Public Health,29.7698922,3,-95.5907013,Google,Health and medical,77079
AFC Urgent Care Richmond,urgent_care,Public Health,29.6517591,3,-95.7028356,Google,Health and medical,77407
Prime Urgent Care,urgent_care,Public Health,29.561621,3,-95.3864815,Google,Health and medical,77584
UTMB Health Urgent Care - Alvin,urgent_care,Public Health,29.4215984,3,-95.2247125,Google,Health and medical,77517
AFC Urgent Care Vintage,urgent_care,Public Health,29.9976313,3,-95.5761324,Google,Health and medical,77070
NextCare Urgent Care,urgent_care,Public Health,29.5466905,3,-95.1024961,Google,Health and medical,77058
CareNow Urgent Care - League City,urgent_care,Public Health,29.4657999,3,-95.0882998,Google,Health and medical,77573
Excel Urgent Care,urgent_care,Public Health,29.967153,3,-95.692573,Google,Health and medical,77429
Miller Funeral & Cremation Services,cremationservices,Fatality Management,29.6911957,3,-95.5231934,Google,Health and medical,77036
Family First Cremation Services,cremationservices,Fatality Management,30.073983,3,-95.410506,Google,Health and medical,77373
Houston Pet Cremation Services,cremationservices,Fatality Management,29.8996545,3,-95.4924388,Google,Health and medical,77086
Allen Dave Funeral Homes & Crematorium,cremationservices,Fatality Management,30.0029817,3,-95.4578369,Google,Health and medical,77090
"Neptune Society Cremation Service - Houston, TX",cremationservices,Fatality Management,29.7353546,3,-95.4104061,Google,Health and medical,77098
Smart Cremation,cremationservices,Fatality Management,29.7465721,3,-95.4735061,Google,Health and medical,77056
aCremation,cremationservices,Fatality Management,29.760036,3,-95.3621014,Google,Health and medical,77010
Advantage Funeral and Cremation Services,cremationservices,Fatality Management,29.703512,3,-95.4787232,Google,Health and medical,77081
Cremate Texas,cremationservices,Fatality Management,29.6567628,3,-95.2485947,Google,Health and medical,77587
Valued Cremation,cremationservices,Fatality Management,29.6464047,3,-95.4446567,Google,Health and medical,77045
Graceful Cremation,cremationservices,Fatality Management,30.014812,3,-95.442812,Google,Health and medical,77090
West University Cremation Services,cremationservices,Fatality Management,29.7232661,3,-95.4156572,Google,Health and medical,77005
Crespo & Jirrels Funeral and Cremation Services,cremationservices,Fatality Management,29.7911266,3,-94.9806535,Google,Health and medical,77521
Little Friends Pet Memorial,cremationservices,Fatality Management,29.7252786,3,-95.5158568,Google,Health and medical,77063
Navarre Funeral Home & Cremation Services,cremationservices,Fatality Management,29.8042523,3,-95.028721,Google,Health and medical,77562
"The Pet Loss Center of Houston | Pet Cremation, Pet Burial, Pet Memorialization",cremationservices,Fatality Management,29.7265265,3,-95.561974,Google,Health and medical,77042
Foster Landin Funeral & Cremation Services,cremationservices,Fatality Management,29.845134,3,-95.332548,Google,Health and medical,77093
Southeast Texas Crematory,cremationservices,Fatality Management,29.9682714,3,-95.4142917,Google,Health and medical,77073
Cherished Pet Cremations,cremationservices,Fatality Management,29.9659772,3,-95.5288267,Google,Health and medical,77069
Respectful Cremtions,cremationservices,Fatality Management,30.0672252,3,-95.2273837,Google,Health and medical,77339
Medical Center Shell,servicestations,Fuel,29.706535,4,-95.412963,Yelp,Energy,77030
Mobil,servicestations,Fuel,29.7623187,4,-95.467041,Yelp,Energy,77056
Kroger,servicestations,Fuel,29.77353477,4,-95.39037323,Yelp,Energy,77007
Houston Biodiesel,servicestations,Fuel,29.80334683,4,-95.41944075,Yelp,Energy,77008
Roberts Mobil Car Care Center,servicestations,Fuel,29.742008,4,-95.441978,Yelp,Energy,77027
Bounce Energy,utilities,Temporary Power,29.7331398,4,-95.4354701,Yelp,Energy,77046
Griddy,utilities,Temporary Power,29.9359,4,-95.41357,Yelp,Energy,77060
Kroger Fuel Center,servicestations,Fuel,29.78984915,4,-95.40992171,Yelp,Energy,77008
Shell Service Stations,servicestations,Fuel,29.73476,4,-95.3904699,Yelp,Energy,77006
Reliant Energy,utilities,Temporary Power,29.75437737,4,-95.36511993,Yelp,Energy,77010
Cullen and Polk Auto Service,servicestations,Fuel,29.73958,4,-95.3387,Yelp,Energy,77003
Discount Power,utilities,Temporary Power,29.759144,4,-95.3676617,Yelp,Energy,77201
Shell,servicestations,Fuel,29.72986412,4,-95.41809845,Yelp,Energy,77098
Kroger Fuel Center,servicestations,Fuel,29.6953222,4,-95.4154652,Yelp,Energy,77030
Energy Ogre,utilities,Temporary Power,29.7302941,4,-95.440683,Yelp,Energy,77046
Chevron,servicestations,Fuel,29.77639495,4,-95.42762347,Yelp,Energy,77007
Shell,servicestations,Fuel,29.7659586,4,-95.4095918,Yelp,Energy,77007
Centerpoint Energy Houston,utilities,Temporary Power,29.75712,4,-95.36442,Yelp,Energy,77010
Gulf,servicestations,Fuel,29.80635061,4,-95.42946872,Yelp,Energy,77008
Constellation,utilities,Temporary Power,29.757871,4,-95.367398,Yelp,Energy,77010
Amigo Energy,utilities,Temporary Power,29.7398283,4,-95.4672806,Yelp,Energy,77056
Entrust Energy,utilities,Temporary Power,29.75554189,4,-95.36163102,Yelp,Energy,77010
Weslayan Exxon,servicestations,Fuel,29.7280998,4,-95.4418488,Yelp,Energy,77046
Green Mountain Energy,utilities,Temporary Power,29.75712,4,-95.36442,Yelp,Energy,77010
Shell,servicestations,Fuel,29.73901,4,-95.3916,Yelp,Energy,77006
Kroger Fuel Center,servicestations,Fuel,29.8283844,4,-95.4317169,Yelp,Energy,77018
Mid-Town Chevron Service Station,servicestations,Fuel,29.73901,4,-95.39079,Yelp,Energy,77006
Vista Energy Marketing,utilities,Temporary Power,29.73406219,4,-95.39296722,Yelp,Energy,77006
Chevron,servicestations,Fuel,29.72960374,4,-95.44174846,Yelp,Energy,77046
Astrodome Texaco,servicestations,Fuel,29.694055,4,-95.414333,Yelp,Energy,77054
Direct Energy,utilities,Temporary Power,29.7330728,4,-95.4357082,Yelp,Energy,77046
Exxon Company U S A,servicestations,Fuel,29.723148,4,-95.377845,Yelp,Energy,77004
Shell,servicestations,Fuel,29.73129,4,-95.419111,Yelp,Energy,77098
Gulf,servicestations,Fuel,29.7422708,4,-95.3591546,Yelp,Energy,77003
Shell,servicestations,Fuel,29.72929,4,-95.42757,Yelp,Energy,77098
Katy Freeway Texaco,servicestations,Fuel,29.77672,4,-95.417488,Yelp,Energy,77007
Direct Energy,utilities,Temporary Power,29.73306727,4,-95.43542725,Yelp,Energy,77046
Little Buddy Convenience Store,servicestations,Fuel,29.78041077,4,-95.38220978,Yelp,Energy,77009
Chevron,servicestations,Fuel,29.7163353,4,-95.38132477,Yelp,Energy,77004
Citgo,servicestations,Fuel,29.69864566,4,-95.38655353,Yelp,Energy,77004
Heights Market,servicestations,Fuel,29.799232,4,-95.41190151,Yelp,Energy,77008
Valero,servicestations,Fuel,29.6919498,4,-95.4404221,Yelp,Energy,77025
Jensen Gas And Food,servicestations,Fuel,29.82834,4,-95.34225,Yelp,Energy,77093
Real Simple Energy,electricitysuppliers,Temporary Power,29.73223,4,-95.41345,Yelp,Energy,77098
Pilot Travel Center,servicestations,Fuel,29.80025,4,-95.26765,Yelp,Energy,77013
Infuse Energy,electricitysuppliers,Temporary Power,29.73144,4,-95.41021,Yelp,Energy,77098
Busy Bee,servicestations,Fuel,29.70112,4,-95.37165,Yelp,Energy,77021
Ekko Fuels & Oil,servicestations,Fuel,29.73197005,4,-95.46788098,Yelp,Energy,77027
Exxon Company U S A,servicestations,Fuel,29.7787,4,-95.28447,Yelp,Energy,77020
Texaco Dunlavy Mart,servicestations,Fuel,29.75739288,4,-95.40213013,Yelp,Energy,77019
Kroger Fuel Center,servicestations,Fuel,29.66920898,4,-95.46368591,Yelp,Energy,77096
Nomaan's Shell,servicestations,Fuel,29.84076309,4,-95.42928314,Yelp,Energy,77018
Chevron Stations,servicestations,Fuel,29.70276642,4,-95.30394745,Yelp,Energy,77087
Byrd's Svc,servicestations,Fuel,29.83386,4,-95.31921,Yelp,Energy,77028
MXenergy,servicestations,Fuel,29.76012,4,-95.3656,Yelp,Energy,77201
Cullen Mobil Et,servicestations,Fuel,29.655141,4,-95.355056,Yelp,Energy,77051
Shell Service Stations,servicestations,Fuel,29.77709,4,-95.29074,Yelp,Energy,77020
Almeda Food Store,servicestations,Fuel,29.68135071,4,-95.39348602,Yelp,Energy,77054
Love's Travel Stop,servicestations,Fuel,29.79747641,4,-95.36982779,Yelp,Energy,77009
Kirby Shell & Auto Repair,servicestations,Fuel,29.70649,4,-95.41797,Yelp,Energy,77030
Exxon,servicestations,Fuel,29.730657,4,-95.427787,Yelp,Energy,77046
Phillips 66 Company,servicestations,Fuel,29.80801,4,-95.44136,Yelp,Energy,77008
Studemont Shell,servicestations,Fuel,29.77585,4,-95.39474,Yelp,Energy,77007
Chevron,servicestations,Fuel,29.73137,4,-95.38233,Yelp,Energy,77006
Exxon,servicestations,Fuel,29.72518,4,-95.41816,Yelp,Energy,77098
Texaco,servicestations,Fuel,29.7601927,4,-95.3693896,Yelp,Energy,77201
Shell,servicestations,Fuel,29.65495142,4,-95.26381221,Yelp,Energy,77061
Murphy USA,servicestations,Fuel,29.78729893,4,-95.46642889,Yelp,Energy,77055
Chevron,servicestations,Fuel,29.74919,4,-95.37528,Yelp,Energy,77002
Citgo,servicestations,Fuel,29.77158461,4,-95.39672689,Yelp,Energy,77007
Jeffy's Exxon No 2,servicestations,Fuel,29.72746,4,-95.35029,Yelp,Energy,77003
Exxon,servicestations,Fuel,29.75715,4,-95.39266,Yelp,Energy,77019
Exxon Company U S A Complete Auto Repar Twng Srvce,servicestations,Fuel,29.7145684,4,-95.3157367,Yelp,Energy,77023
Exxon Company U S A Complete Auto Repar Twng Srvce,servicestations,Fuel,29.7751,4,-95.30146,Yelp,Energy,77020
Murphy Express,servicestations,Fuel,29.81148194,4,-95.42870087,Yelp,Energy,77008
Exxon Gas Station,servicestations,Fuel,29.76927939,4,-95.39202146,Yelp,Energy,77007
Shell,servicestations,Fuel,29.81488997,4,-95.45978297,Yelp,Energy,77092
Shell,servicestations,Fuel,29.84748829,4,-95.41160717,Yelp,Energy,77018
Valero,servicestations,Fuel,29.74160732,4,-95.37650847,Yelp,Energy,77002
Shell Gas Station,servicestations,Fuel,29.6727905,4,-95.2766571,Yelp,Energy,77017
Fuel Depot No Six,servicestations,Fuel,29.70314789,4,-95.27835083,Yelp,Energy,77012
Shepherd Shell,servicestations,Fuel,29.77828,4,-95.40915,Yelp,Energy,77007
Circle K,servicestations,Fuel,29.71607,4,-95.46835,Yelp,Energy,77401
CJs Shell,servicestations,Fuel,29.87074214,4,-95.31424563,Yelp,Energy,77016
Chevron,servicestations,Fuel,29.68954577,4,-95.45825578,Yelp,Energy,77401
Sunmart,servicestations,Fuel,29.84561157,4,-95.45902252,Yelp,Energy,77092
Chevron,servicestations,Fuel,29.74429096,4,-95.35761595,Yelp,Energy,77003
Tara Energy,utilities,Temporary Power,29.739294,4,-95.467438,Yelp,Energy,77056
Love's Travel Stop,servicestations,Fuel,29.79861717,4,-95.26907895,Yelp,Energy,77013
Shell,servicestations,Fuel,29.76884991,4,-95.38783347,Yelp,Energy,77007
Exxon Company U S A,servicestations,Fuel,29.80336189,4,-95.37158203,Yelp,Energy,77009
Exxon,servicestations,Fuel,29.71658261,4,-95.35421716,Yelp,Energy,77021
Chevron Station,servicestations,Fuel,29.70624733,4,-95.46754456,Yelp,Energy,77401
Shell,servicestations,Fuel,29.71379117,4,-95.38127902,Yelp,Energy,77004
Chevron,servicestations,Fuel,29.7555,4,-95.3616,Yelp,Energy,77010
Chevron Gas Station,servicestations,Fuel,29.754927,4,-95.336517,Yelp,Energy,77003
Exxon,servicestations,Fuel,29.77681175,4,-95.41840825,Yelp,Energy,77007
Shell Station,servicestations,Fuel,29.76102448,4,-95.41883087,Yelp,Energy,77007
Texaco,servicestations,Fuel,29.808192,4,-95.3177,Yelp,Energy,77026
Shell,servicestations,Fuel,29.70634,4,-95.34378,Yelp,Energy,77021
Shell,servicestations,Fuel,29.77366475,4,-95.31583907,Yelp,Energy,77020
Shell,servicestations,Fuel,29.80883388,4,-95.44270568,Yelp,Energy,77008
Valero,servicestations,Fuel,29.81702,4,-95.4360372,Yelp,Energy,77018
Exxon Star Stop,servicestations,Fuel,29.81359,4,-95.39997,Yelp,Energy,77008
Shell,servicestations,Fuel,29.74772,4,-95.37286,Yelp,Energy,77002
Coastal Express,servicestations,Fuel,29.68554306,4,-95.28992462,Yelp,Energy,77087
Citgo,servicestations,Fuel,29.7344,4,-95.419,Yelp,Energy,77098
Shell Woodridge,servicestations,Fuel,29.702375,4,-95.294708,Yelp,Energy,77087
Reed Mart,servicestations,Fuel,29.65738,4,-95.38598,Yelp,Energy,77051
Chevron,servicestations,Fuel,29.74675,4,-95.45574,Yelp,Energy,77027
Eastex Exxon Car Care Center,servicestations,Fuel,29.871175,4,-95.330734,Yelp,Energy,77093
Exxonmobil,servicestations,Fuel,29.8081658,4,-95.4551051,Yelp,Energy,77092
Monroe's Texaco,servicestations,Fuel,29.67233,4,-95.265487,Yelp,Energy,77017
Gulfway Quick Mart,servicestations,Fuel,29.67551,4,-95.26884,Yelp,Energy,77017
LifeEnergy,utilities,Temporary Power,29.7465703,4,-95.4576754,Yelp,Energy,77027
Trusmart Energy,utilities,Temporary Power,29.7345205,4,-95.4249075,Yelp,Energy,77098
Shell,servicestations,Fuel,29.73175154,4,-95.37577673,Yelp,Energy,77004
Shell,servicestations,Fuel,29.67984599,4,-95.40247589,Yelp,Energy,77054
Circle K,servicestations,Fuel,29.682523,4,-95.423146,Yelp,Energy,77025
First Choice Power,utilities,Temporary Power,29.73123932,4,-95.43492889,Yelp,Energy,77046
Citgo,servicestations,Fuel,29.74236492,4,-95.41103743,Yelp,Energy,77019
Shell,servicestations,Fuel,29.81241418,4,-95.41307212,Yelp,Energy,77008
Murphy,servicestations,Fuel,29.82003184,4,-95.425904,Yelp,Energy,77018
South Main Mobil Et,servicestations,Fuel,29.68496895,4,-95.42281342,Yelp,Energy,77025
Sunrise Fuel,servicestations,Fuel,29.80711,4,-95.26194,Yelp,Energy,77013
Phillips 66,servicestations,Fuel,29.69649,4,-95.41798,Yelp,Energy,77030
Citgo,servicestations,Fuel,29.695003,4,-95.301704,Yelp,Energy,77087
PowerFuel,servicestations,Fuel,29.66101,4,-95.277198,Yelp,Energy,77061
Exxon,servicestations,Fuel,29.74444435,4,-95.35739506,Yelp,Energy,77003
Continuum Energy,utilities,Temporary Power,29.754756,4,-95.369798,Yelp,Energy,77002
Shell,servicestations,Fuel,29.69135,4,-95.43967,Yelp,Energy,77025
Valero,servicestations,Fuel,29.72275,4,-95.37847,Yelp,Energy,77004
Zakaria Abdul,servicestations,Fuel,29.73644,4,-95.34746,Yelp,Energy,77003
Gasoline,servicestations,Fuel,29.73593,4,-95.34673,Yelp,Energy,77003
Chevron Service Station,servicestations,Fuel,29.69834725,4,-95.38765622,Yelp,Energy,77030
Murphy USA,servicestations,Fuel,29.828662,4,-95.3787383,Yelp,Energy,77022
Check Out,servicestations,Fuel,29.69648,4,-95.30125,Yelp,Energy,77087
Shell,servicestations,Fuel,29.74053,4,-95.45903,Yelp,Energy,77027
Exxon Company U S A Complete Auto Repar Twng Srvce,servicestations,Fuel,29.8133316,4,-95.42974854,Yelp,Energy,77008
Chevron Station Houston,servicestations,Fuel,29.681351,4,-95.393489,Yelp,Energy,77054
Star Stop,servicestations,Fuel,29.679394,4,-95.394182,Yelp,Energy,77054
Valero,servicestations,Fuel,29.65978,4,-95.31259,Yelp,Energy,77033
Shell,servicestations,Fuel,29.66392,4,-95.4636,Yelp,Energy,77096
Floyd's Premier Service Station,servicestations,Fuel,29.86344494,4,-95.44403806,Yelp,Energy,77091
Shell Gas station,servicestations,Fuel,29.716969,4,-95.461009,Yelp,Energy,77401
Electricity For Houston,utilities,Temporary Power,29.75609,4,-95.36807,Yelp,Energy,77002
Shell Gas Station,servicestations,Fuel,29.68414,4,-95.2776049,Yelp,Energy,77017
Shell,servicestations,Fuel,29.76072,4,-95.34905,Yelp,Energy,77003
Reliant Energy,utilities,Temporary Power,29.76527214,4,-95.36576843,Yelp,Energy,77201
Citgo,servicestations,Fuel,29.76527214,4,-95.36576843,Yelp,Energy,77201
Texaco,servicestations,Fuel,29.74757,4,-95.37042,Yelp,Energy,77002
Bounce Energy,electricitysuppliers,Temporary Power,29.74875,4,-95.38309,Yelp,Energy,77006
Shell,servicestations,Fuel,29.76908572,4,-95.38782721,Yelp,Energy,77007
Circle K,servicestations,Fuel,29.74493,4,-95.39167,Yelp,Energy,77006
Think Energy,utilities,Temporary Power,29.7452238,4,-95.4628497,Yelp,Energy,77056
Irvingston Shell,servicestations,Fuel,29.81337,4,-95.36166,Yelp,Energy,77022
Shell Service Stations,servicestations,Fuel,29.728153,4,-95.440757,Yelp,Energy,77046
Shell,servicestations,Fuel,29.7465,4,-95.44198,Yelp,Energy,77027
Circle K,servicestations,Fuel,29.71596,4,-95.45102,Yelp,Energy,77401
Exxon,servicestations,Fuel,29.70771476,4,-95.46839592,Yelp,Energy,77401
Payless Power Texas,electricitysuppliers,Temporary Power,32.7781601,4,-96.79540253,Yelp,Energy,75202
"Sun Coast Resources, Inc.",Fuel supplier,Fuel,29.8019436,4,-95.3045223,Google,Energy,77026
Apache Oil Company,Fuel supplier,Fuel,29.6649822,4,-95.164305,Google,Energy,77505
Moffitt Services,Fuel supplier,Fuel,30.0254865,4,-95.6964001,Google,Energy,77377
PE Fuels International,Fuel supplier,Fuel,29.7372033,4,-95.4613183,Google,Energy,77027
Premier Fuel Distributors,Fuel supplier,Fuel,29.7343162,4,-95.5006414,Google,Energy,77063
Dan Bunkering America Inc,Fuel supplier,Fuel,29.7776626,4,-95.5426161,Google,Energy,77024
Kinder Morgan Inc,Fuel supplier,Fuel,29.740558,4,-95.2500079,Google,Energy,77547
Kinder Morgan Inc,Fuel supplier,Fuel,29.7093435,4,-95.2504811,Google,Energy,77012
"Three L., Inc.",Fuel supplier,Fuel,29.633475,4,-95.405687,Google,Energy,77045
C&W Veloce Services Diesel Fuel Purification,Fuel supplier,Fuel,30.0481857,4,-95.57749,Google,Energy,77379
Relevant Fuel Solutions,Fuel supplier,Fuel,29.9981702,4,-95.3847595,Google,Energy,77073
Petroleum Services,Fuel supplier,Fuel,29.8673796,4,-95.5510487,Google,Energy,77040
Global Fuels,Fuel supplier,Fuel,29.6009475,4,-95.6373269,Google,Energy,77478
Bay Oil Co,Fuel supplier,Fuel,29.4610391,4,-95.0585645,Google,Energy,77573
Petroleum Express Inc.,Fuel supplier,Fuel,29.7677838,4,-95.2504601,Google,Energy,77029
World Energy,Fuel supplier,Fuel,29.7325268,4,-95.2186925,Google,Energy,77547
Lazer Energy Co Inc,Fuel supplier,Fuel,29.6270839,4,-95.2583947,Google,Energy,77075
"SGR Energy, Inc.",Fuel supplier,Fuel,29.9942029,4,-95.485678,Google,Energy,77068
Martin Energy Services,Fuel supplier,Fuel,29.7462173,4,-95.1227159,Google,Energy,77530
Diesel Fuel Maintenance Inc,Fuel supplier,Fuel,29.664763,4,-95.0356879,Google,Energy,77571
Colonial Pipeline Company,colonial pipeline,Fuel,29.7192387,4,-95.1827378,Google,Energy,77503
Colonial Pipeline Co,colonial pipeline,Fuel,29.8882395,4,-95.106536,Google,Energy,77044
Texican Natural Gas Co,gas company,Fuel,29.7576147,4,-95.3703659,Google,Energy,77002
Contango Oil & Gas Co,gas company,Fuel,29.7616891,4,-95.3642277,Google,Energy,77201
Matheson,gas company,Fuel,29.6329724,4,-95.5630421,Google,Energy,77477
Penn Virginia Oil & Gas LP,gas company,Fuel,29.7862596,4,-95.6649712,Google,Energy,77094
Oklahoma Natural Gas Co,gas company,Fuel,29.9465527,4,-95.4212707,Google,Energy,77060
Cico Oil & Gas Co,gas company,Fuel,29.7584265,4,-95.4797847,Google,Energy,77056
KERR-MCGEE OIL & GAS ONSHORE LLC,gas company,Fuel,29.9423612,4,-95.4023672,Google,Energy,77060
AB Gas Company,gas company,Fuel,29.804407,4,-95.467516,Google,Energy,77092
Apache Corporation,gas company,Fuel,29.7446867,4,-95.4616308,Google,Energy,77056
GE Oil & Gas,gas company,Fuel,29.873989,4,-95.5670606,Google,Energy,77041
Northern Natural Gas,gas company,Fuel,29.757349,4,-95.3719384,Google,Energy,77002
CDM Max LLC,gas company,Fuel,29.7573519,4,-95.3718504,Google,Energy,77002
Cabot Oil & Gas Corporation,gas company,Fuel,29.7780314,4,-95.5427867,Google,Energy,77080
Eagle Ford Oil & Gas,gas company,Fuel,29.5455522,4,-95.1032851,Google,Energy,77058
Carrizo Oil & Gas Inc,gas company,Fuel,29.7576539,4,-95.3705237,Google,Energy,77002
Superior Natural Gas Corporation,gas company,Fuel,29.757703,4,-95.3688423,Google,Energy,77002
Marubeni Oil & Gas USA Inc,gas company,Fuel,29.7776341,4,-95.6188252,Google,Energy,77079
Hew-Tex Oil & Gas Corporation,gas company,Fuel,29.7283,4,-95.575594,Google,Energy,77042
Florida Gas Transmission Co,gas company,Fuel,29.7392337,4,-95.4634689,Google,Energy,77027
Choice Natural Gas LP,gas company,Fuel,29.7497206,4,-95.4648025,Google,Energy,77056
Schneider Electric,Electrical equipment supplier,Temporary Power,29.9421357,4,-95.5063357,Google,Energy,77066
ERCO Electrical Redesign Co,Electrical equipment supplier,Temporary Power,29.758326,4,-95.316828,Google,Energy,77020
Clayton Control Systems,Electrical equipment supplier,Temporary Power,29.8652739,4,-95.4940165,Google,Energy,77040
Sunbelt Rentals Power & HVAC,Electrical equipment supplier,Temporary Power,29.707655,4,-95.221064,Google,Energy,77506
"Kaman Automation, Inc.",Electrical equipment supplier,Temporary Power,29.940484,4,-95.5220223,Google,Energy,77064
"Siemens Energy, Inc.",Electrical equipment supplier,Temporary Power,29.7794042,4,-95.625591,Google,Energy,77079
Source IEx,Electrical equipment supplier,Temporary Power,30.054655,4,-95.43992,Google,Energy,77388
Powell Industries,Electrical equipment supplier,Temporary Power,29.650802,4,-95.296544,Google,Energy,77061
Powell Industries Corporate Division,Electrical equipment supplier,Temporary Power,29.644837,4,-95.253682,Google,Energy,77061
Wildcat Electric Supply Ltd,Electrical equipment supplier,Temporary Power,29.7596973,4,-95.314008,Google,Energy,77020
ECP Solutions,Electrical equipment supplier,Temporary Power,29.7484372,4,-95.3421245,Google,Energy,77003
Power Up Surplus Inc,Electrical equipment supplier,Temporary Power,29.6265094,4,-95.2738742,Google,Energy,77075
Power Temp Systems Inc,Electrical equipment supplier,Temporary Power,29.9353142,4,-95.365511,Google,Energy,77060
Griffin Machine Works LLC - Oil Field Equipment and Electrical Blueprints in Houston TX,Electrical equipment supplier,Temporary Power,29.8573776,4,-95.5591626,Google,Energy,77041
Industrial Equipment Co,Electrical equipment supplier,Temporary Power,29.692242,4,-95.3267168,Google,Energy,77087
Volta LLC,Electrical equipment supplier,Temporary Power,29.9473039,4,-95.4494568,Google,Energy,77067
Live Line Electrical Safety Services,Electrical equipment supplier,Temporary Power,29.5772576,4,-95.285702,Google,Energy,77581
"Electrical & HVAC Supply, LLC.",Electrical equipment supplier,Temporary Power,29.7049069,4,-95.5756326,Google,Energy,77072
"IES - Industrial Electronic Supply, Inc.",Electrical equipment supplier,Temporary Power,29.8564565,4,-95.5254954,Google,Energy,77040
"M&J Electrical Supply, Inc",Electrical equipment supplier,Temporary Power,29.8660909,4,-95.4102331,Google,Energy,77091
Fry Road Substation,Electrical substation,Power,29.9136685,4,-95.7261744,Google,Energy,77433
Substation Services Inc,Electrical substation,Power,29.5625328,4,-95.3078881,Google,Energy,77581
Eureka Sub.,Electrical substation,Power,29.7955078,4,-95.4340167,Google,Energy,77008
Zenith Subtation (CNP),Electrical substation,Power,29.909584,4,-95.7773689,Google,Energy,77433
Galena Park sub,Electrical substation,Power,29.7458248,4,-95.23079,Google,Energy,77547
Southwyck Substation,Electrical substation,Power,29.5526237,4,-95.3893598,Google,Energy,77584
Electric Substation,Electrical substation,Power,29.7248641,4,-95.0602066,Google,Energy,77571
Electric Substation,Electrical substation,Power,29.7228353,4,-95.0595411,Google,Energy,77571
O'Brien Substation (CNP),Electrical substation,Power,29.6727771,4,-95.7154871,Google,Energy,77407
Woodcreek Substation (CNP),Electrical substation,Power,29.7879256,4,-95.6207752,Google,Energy,77079
Memorial Actual Substation (CNP),Electrical substation,Power,29.7710336,4,-95.6173249,Google,Energy,77077
Memorial Mobile Substation (CNP),Electrical substation,Power,29.7712327,4,-95.6156673,Google,Energy,77079
Kuykendahl Substation (CNP),Electrical substation,Power,30.0892571,4,-95.5257398,Google,Energy,77379
W.A Parish Substation,Electrical substation,Power,29.4828469,4,-95.6302233,Google,Energy,77469
Hidden Valley Substation (CNP),Electrical substation,Power,29.9112981,4,-95.4233291,Google,Energy,77038
H.O Clarke Substation (CNP),Electrical substation,Power,29.6500485,4,-95.4486233,Google,Energy,77045
Grant Substation (CNP),Electrical substation,Power,29.7033192,4,-95.401694,Google,Energy,77030
Hyde Park Substation (CNP),Electrical substation,Power,29.7478569,4,-95.3840605,Google,Energy,77006
Gable St. Substation (CNP),Electrical substation,Power,29.7627399,4,-95.3522757,Google,Energy,77010
Glendwood Substation (CNP),Electrical substation,Power,29.8507623,4,-95.2664031,Google,Energy,77078
WA Parish Plant,power plant,Power,29.472617,4,-95.6439409,Google,Energy,77469
Brazos Valley Energy Power Plant,power plant,Power,29.472493,4,-95.6231814,Google,Energy,77469
Calpine Deer Park Energy Center,power plant,Power,29.7119946,4,-95.1340036,Google,Energy,77536
NRG Energy - Greens Bayou Plant,power plant,Power,29.8216138,4,-95.2193266,Google,Energy,77013
UH Central Power Plant,power plant,Power,29.7219845,4,-95.3420055,Google,Energy,77021
P.H. Robinson Sub-station,power plant,Power,29.4921974,4,-94.9858522,Google,Energy,77539
Biofuels Power Corporation,power plant,Power,29.6503733,4,-95.4509174,Google,Energy,77045
Smith Power Systems,power plant,Power,29.939806,4,-95.404679,Google,Energy,77060
NRG San Jacinto Power Plant,power plant,Power,29.694345,4,-95.0402861,Google,Energy,77571
McGrath Power Solutions Ltd,power plant,Power,29.7857018,4,-95.6637899,Google,Energy,77094
"Texas Power Generation, LLC",power plant,Power,29.578722,4,-95.106744,Google,Energy,77058
EIF Channelview Cogeneration,power plant,Power,29.8382266,4,-95.124381,Google,Energy,77049
Hydro Leduc,power plant,Power,29.7917954,4,-95.7099331,Google,Energy,77094
Power Plant,power plant,Power,29.7265668,4,-95.0597902,Google,Energy,77571
Kgen Power Corporation,power plant,Power,29.7534371,4,-95.4612242,Google,Energy,77056
LaPorte Power Station,power plant,Power,29.7030064,4,-95.0718403,Google,Energy,77571
Houston Lighting & Power Company,power plant,Power,29.7469399,4,-95.353434,Google,Energy,77003
"TransCanada Turbines, Inc.",power plant,Power,29.944827,4,-95.517379,Google,Energy,77066
Siemens Energy Inc,power plant,Power,29.7609783,4,-95.3092807,Google,Energy,77020
Thermal Energy Corporation - South Main Plant,power plant,Power,29.7047285,4,-95.4050124,Google,Energy,77030
WA Parish Plant,nuclear power plant,Power,29.472617,7,-95.6439409,Google,Hazardous Material,77469
Calpine Deer Park Energy Center,nuclear power plant,Power,29.7119946,7,-95.1340036,Google,Hazardous Material,77536
Brazos Valley Energy Power Plant,nuclear power plant,Power,29.472493,7,-95.6231814,Google,Hazardous Material,77469
Biofuels Power Corporation,nuclear power plant,Power,29.6503733,7,-95.4509174,Google,Hazardous Material,77045
EIF Channelview Cogeneration,nuclear power plant,Power,29.8382266,7,-95.124381,Google,Hazardous Material,77049
NRC Industries,nuclear power plant,Power,29.8754691,7,-95.5938184,Google,Hazardous Material,77041
TH Wharton Generating Station,nuclear power plant,Power,29.9450784,7,-95.5277457,Google,Hazardous Material,77064
Crown Castle,houston cell towers,Infrastructure,29.731756,5,-95.368769,Google,Communication,77004
American Tower Corporation,houston cell towers,Infrastructure,29.8169478,5,-95.1386783,Google,Communication,77049
American Tower Corporation,houston cell towers,Infrastructure,29.8977762,5,-95.4421484,Google,Communication,77088
American Tower Corporation,houston cell towers,Infrastructure,29.906499,5,-95.523814,Google,Communication,77064
American Tower Corporation,houston cell towers,Infrastructure,29.6472339,5,-95.2585641,Google,Communication,77061
Crown Castle International Corporation,houston cell towers,Infrastructure,29.7546665,5,-95.4831109,Google,Communication,77057
American Tower Corporation,houston cell towers,Infrastructure,29.8359225,5,-95.3782513,Google,Communication,77022
KPFT FM 90.1 Pacifica Radio,radiostations,Alerts & Warnings,29.74308395,5,-95.38669586,Yelp,Communication,77006
Wells Fargo Bank,banks,Financial Services,29.75359535,1,-95.39854431,Yelp,Saftey & Security,77019
KTSU 90.9 FM,radiostations,Alerts & Warnings,29.72018293,5,-95.35937456,Yelp,Communication,77004
Khou-TV 11 Channel,televisionstations,Alerts & Warnings,29.759893,5,-95.387825,Yelp,Communication,77002
Houston Public Media News 88.7,radiostations,Alerts & Warnings,29.726556,5,-95.338962,Yelp,Communication,77003
People's Trust Federal Credit Union,banks,Financial Services,29.7591801,1,-95.3671951,Yelp,Saftey & Security,77201
Chase Bank,banks,Financial Services,29.757148,1,-95.367954,Yelp,Saftey & Security,77002
Federal Reserve Bank,banks,Financial Services,29.75994,1,-95.38437,Yelp,Saftey & Security,77002
People's Trust Federal Credit Union,banks,Financial Services,29.732564,1,-95.46722,Yelp,Saftey & Security,77027
Prosperity Bank - Heights,banks,Financial Services,29.80727318,1,-95.39914738,Yelp,Saftey & Security,77008
Chase Bank,banks,Financial Services,29.73410818,1,-95.39067154,Yelp,Saftey & Security,77006
Chase Bank,banks,Financial Services,29.747131,1,-95.377426,Yelp,Saftey & Security,77002
Spirit Of Texas Bank,banks,Financial Services,29.7281,1,-95.44418,Yelp,Saftey & Security,77046
KTRU FM 91.7 - Rice University Radio,radiostations,Alerts & Warnings,29.720531,5,-95.396408,Yelp,Communication,77004
Navy Federal Credit Union,banks,Financial Services,29.688137,1,-95.4613313,Yelp,Saftey & Security,77401
TDECU,banks,Financial Services,29.80245656,1,-95.40495432,Yelp,Saftey & Security,77008
PrimeWay Federal Credit Union,banks,Financial Services,29.770165,1,-95.399097,Yelp,Saftey & Security,77007
Houston Federal Credit Union Kirby Office,banks,Financial Services,29.73312,1,-95.4180499,Yelp,Saftey & Security,77098
Chase Bank,banks,Financial Services,29.769336,1,-95.39118,Yelp,Saftey & Security,77007
94.5 THE BUZZ KTBZ-FM,radiostations,Alerts & Warnings,29.7467675,5,-95.4574043,Yelp,Communication,77027
Chase Bank,banks,Financial Services,29.731264,1,-95.4659862,Yelp,Saftey & Security,77027
Allegiance Bank,banks,Financial Services,29.73115583,1,-95.41844107,Yelp,Saftey & Security,77098
Frost,banks,Financial Services,29.718773,1,-95.4181935,Yelp,Saftey & Security,77005
Bank of America,banks,Financial Services,29.75273,1,-95.40302,Yelp,Saftey & Security,77019
Frost Bank,banks,Financial Services,29.732181,1,-95.433954,Yelp,Saftey & Security,77046
Channel 13 Ktrk Tv,televisionstations,Alerts & Warnings,29.72602,5,-95.4293299,Yelp,Communication,77046
Capital One Bank,banks,Financial Services,29.69382185,1,-95.41302401,Yelp,Saftey & Security,77054
Chase Bank,banks,Financial Services,29.692213,1,-95.416741,Yelp,Saftey & Security,77054
JSC Federal Credit Union,banks,Financial Services,29.6940606,1,-95.265542,Yelp,Saftey & Security,77017
Wells Fargo Bank,banks,Financial Services,29.786377,1,-95.36113,Yelp,Saftey & Security,77009
Technology Bytes on KPFT 90.1FM,radiostations,Alerts & Warnings,29.74308395,5,-95.38669586,Yelp,Communication,77006
Wells Fargo Bank,banks,Financial Services,29.74648,1,-95.3786,Yelp,Saftey & Security,77002
Wells Fargo Bank,banks,Financial Services,29.75073,1,-95.46023,Yelp,Saftey & Security,77056
Wells Fargo Bank,banks,Financial Services,29.70563698,1,-95.42704773,Yelp,Saftey & Security,77030
Hot 95.7 KKHH,radiostations,Alerts & Warnings,29.73053,5,-95.44087,Yelp,Communication,77046
PrimeWay Federal Credit Union,banks,Financial Services,29.71153,1,-95.40015,Yelp,Saftey & Security,77030
Wells Fargo Bank,banks,Financial Services,29.69026,1,-95.44139,Yelp,Saftey & Security,77025
Chase Bank,banks,Financial Services,29.77386317,1,-95.399134,Yelp,Saftey & Security,77007
Wells Fargo Bank,banks,Financial Services,29.76169436,1,-95.4189751,Yelp,Saftey & Security,77007
Wells Fargo,banks,Financial Services,29.72370111,1,-95.44100912,Yelp,Saftey & Security,77046
Amegy Bank,banks,Financial Services,29.776298,1,-95.381965,Yelp,Saftey & Security,77009
Arrow 93.7 KKRW FM,radiostations,Alerts & Warnings,29.75712,5,-95.36442,Yelp,Communication,77010
Wells Fargo Bank,banks,Financial Services,29.740542,1,-95.418304,Yelp,Saftey & Security,77098
Wells Fargo Bank,banks,Financial Services,29.8042,1,-95.4011,Yelp,Saftey & Security,77008
Ktrh Am 740 Newsradio,radiostations,Alerts & Warnings,29.74382591,5,-95.38779449,Yelp,Communication,77006
Chase Bank,banks,Financial Services,29.7381769,1,-95.4174039,Yelp,Saftey & Security,77098
Houston Police Credit Union,banks,Financial Services,29.764298,1,-95.37456,Yelp,Saftey & Security,77201
Bank of America,banks,Financial Services,29.74667,1,-95.37217,Yelp,Saftey & Security,77002
Resource One Credit Union,banks,Financial Services,29.828625,1,-95.435041,Yelp,Saftey & Security,77018
Univision,televisionstations,Alerts & Warnings,29.7279726,5,-95.464885,Yelp,Communication,77027
KBXX 97.9 The Box,radiostations,Alerts & Warnings,29.73053,5,-95.44087,Yelp,Communication,77046
Wells Fargo Bank,banks,Financial Services,29.828621,1,-95.431152,Yelp,Saftey & Security,77018
Wells Fargo Bank,banks,Financial Services,29.7754097,1,-95.3819733,Yelp,Saftey & Security,77201
Chase Bank,banks,Financial Services,29.70189498,1,-95.40157451,Yelp,Saftey & Security,77030
Houston Public Media TV 8,televisionstations,Alerts & Warnings,29.7263925,5,-95.3393635,Yelp,Communication,77003
Bank of America,banks,Financial Services,29.73308,1,-95.4411,Yelp,Saftey & Security,77046
Bank of America,banks,Financial Services,29.74971199,1,-95.46677399,Yelp,Saftey & Security,77056
Wells Fargo Bank,banks,Financial Services,29.72625,1,-95.41903,Yelp,Saftey & Security,77098
J.P. Morgan Private Bank,banks,Financial Services,29.75894564,1,-95.36374667,Yelp,Saftey & Security,77010
Vista Bank Texas,banks,Financial Services,29.75476,1,-95.36985,Yelp,Saftey & Security,77002
Chase Bank,banks,Financial Services,29.75057,1,-95.4626399,Yelp,Saftey & Security,77056
IBC Bank,banks,Financial Services,29.73745,1,-95.39069,Yelp,Saftey & Security,77006
Chase Bank,banks,Financial Services,29.722834,1,-95.418131,Yelp,Saftey & Security,77005
Space City Credit Union,banks,Financial Services,29.7501508,1,-95.343721,Yelp,Saftey & Security,77003
Bank of America,banks,Financial Services,29.69129865,1,-95.41552646,Yelp,Saftey & Security,77054
Bank of America,banks,Financial Services,29.76054,1,-95.36631,Yelp,Saftey & Security,77201
BB&T,banks,Financial Services,29.73291016,1,-95.41910163,Yelp,Saftey & Security,77098
Enterprise Bank,banks,Financial Services,29.73471,1,-95.4249899,Yelp,Saftey & Security,77098
Bank of Texas,banks,Financial Services,29.7227449,1,-95.4190329,Yelp,Saftey & Security,77005
Wells Fargo Bank,banks,Financial Services,29.708223,1,-95.40271,Yelp,Saftey & Security,77030
Whitney Bank,banks,Financial Services,29.729725,1,-95.437345,Yelp,Saftey & Security,77046
Iberia Bank,banks,Financial Services,29.7058392,1,-95.4178314,Yelp,Saftey & Security,77030
Chase Bank,banks,Financial Services,29.82051997,1,-95.46467828,Yelp,Saftey & Security,77092
CBS Sports Radio 650,radiostations,Alerts & Warnings,29.73053,5,-95.44087,Yelp,Communication,77046
Bank of America,banks,Financial Services,29.8197028,1,-95.4656428,Yelp,Saftey & Security,77092
BBVA Compass,banks,Financial Services,29.82743,1,-95.43092,Yelp,Saftey & Security,77018
Wells Fargo Bank,banks,Financial Services,29.7414494,1,-95.4420166,Yelp,Saftey & Security,77027
MIX 96.5 FM KHMX,radiostations,Alerts & Warnings,29.7305298,5,-95.4408722,Yelp,Communication,77046
Unity National Bank,banks,Financial Services,29.72324,1,-95.37083,Yelp,Saftey & Security,77004
Chase Bank,banks,Financial Services,29.701604,1,-95.361457,Yelp,Saftey & Security,77021
KHPT 106.9 FM,radiostations,Alerts & Warnings,29.74546,5,-95.46318,Yelp,Communication,77056
Regions Bank,banks,Financial Services,29.79060275,1,-95.40091385,Yelp,Saftey & Security,77008
Chase Bank,banks,Financial Services,29.829029,1,-95.42936,Yelp,Saftey & Security,77018
Chase Bank,banks,Financial Services,29.816968,1,-95.410881,Yelp,Saftey & Security,77008
Bank of America,banks,Financial Services,29.725811,1,-95.419036,Yelp,Saftey & Security,77098
700 Plus Credit,banks,Financial Services,29.67855,1,-95.4199,Yelp,Saftey & Security,77054
Bank of America,banks,Financial Services,29.78517717,1,-95.46761564,Yelp,Saftey & Security,77055
First Service Credit Union,banks,Financial Services,29.75787086,1,-95.36735807,Yelp,Saftey & Security,77010
Chase Bank,banks,Financial Services,29.787365,1,-95.467537,Yelp,Saftey & Security,77055
Wells Fargo Bank,banks,Financial Services,29.75305058,1,-95.45948155,Yelp,Saftey & Security,77056
Chase Bank,banks,Financial Services,29.7381843,1,-95.4173719,Yelp,Saftey & Security,77098
Country Legends 97.1,radiostations,Alerts & Warnings,29.74546,5,-95.46318,Yelp,Communication,77056
Bayou City Federal Credit Union,banks,Financial Services,29.713924,1,-95.39827,Yelp,Saftey & Security,77030
Chase Bank,banks,Financial Services,29.761897,1,-95.417795,Yelp,Saftey & Security,77007
Wells Fargo Bank,banks,Financial Services,29.705659,1,-95.42705,Yelp,Saftey & Security,77030
Wells Fargo Bank,banks,Financial Services,29.74921,1,-95.46599,Yelp,Saftey & Security,77056
PLS Check Cashers,banks,Financial Services,29.71594,1,-95.31561,Yelp,Saftey & Security,77023
Bank of America,banks,Financial Services,29.701851,1,-95.360948,Yelp,Saftey & Security,77021
Wells Fargo Bank,banks,Financial Services,29.7555,1,-95.3616,Yelp,Saftey & Security,77010
Regions Bank,banks,Financial Services,29.74261,1,-95.42574,Yelp,Saftey & Security,77046
Smart Financial Credit Union,banks,Financial Services,29.7291585,1,-95.453394,Yelp,Saftey & Security,77027
Chase Bank,banks,Financial Services,29.7555,1,-95.3627,Yelp,Saftey & Security,77010
Khcb-Christian Radio,radiostations,Alerts & Warnings,29.72666931,5,-95.41588593,Yelp,Communication,77098
First Convenience Bank,banks,Financial Services,29.8283849,1,-95.43172,Yelp,Saftey & Security,77018
Wells Fargo Bank,banks,Financial Services,29.75853192,1,-95.36822284,Yelp,Saftey & Security,77201
U M W Scottish Rite Grand Ldg Af & Am of Texas,radiostations,Alerts & Warnings,29.755975,5,-95.378974,Yelp,Communication,77002
Smart Financial Credit Union,banks,Financial Services,29.80867271,1,-95.44356465,Yelp,Saftey & Security,77008
Chase Bank,banks,Financial Services,29.753389,1,-95.404505,Yelp,Saftey & Security,77019
BBVA Compass,banks,Financial Services,29.75684,1,-95.36566,Yelp,Saftey & Security,77010
AIG American General Companies,banks,Financial Services,29.7598,1,-95.39547,Yelp,Saftey & Security,77019
Channel 13 KTRK TV,televisionstations,Alerts & Warnings,29.75703,5,-95.35662,Yelp,Communication,77010
Cadence Bank - Houston,banks,Financial Services,29.74887,1,-95.41416,Yelp,Saftey & Security,77019
Bank of America,banks,Financial Services,29.67475085,1,-95.28945513,Yelp,Saftey & Security,77087
JSC FCU,banks,Financial Services,29.69433635,1,-95.26566111,Yelp,Saftey & Security,77017
PlainsCapital Bank,banks,Financial Services,29.73356,1,-95.42271,Yelp,Saftey & Security,77098
Capital One Bank,banks,Financial Services,29.77528021,1,-95.38943365,Yelp,Saftey & Security,77007
Radio One,radiostations,Alerts & Warnings,29.730221,5,-95.4408173,Yelp,Communication,77046
Post Oak Bank,banks,Financial Services,29.74646,1,-95.45776,Yelp,Saftey & Security,77027
Bank of America,banks,Financial Services,29.6858841,1,-95.4620311,Yelp,Saftey & Security,77096
Prosperity Bank,banks,Financial Services,29.72796895,1,-95.39150901,Yelp,Saftey & Security,77006
BBVA Compass,banks,Financial Services,29.69601443,1,-95.40143914,Yelp,Saftey & Security,77030
Capital One Bank,banks,Financial Services,29.7507462,1,-95.3771056,Yelp,Saftey & Security,77002
People's Trust Federal Credit Union,banks,Financial Services,29.75414276,1,-95.35005188,Yelp,Saftey & Security,77003
Wells Fargo Bank,banks,Financial Services,29.65865326,1,-95.35668182,Yelp,Saftey & Security,77051
BBVA Compass,banks,Financial Services,29.71673254,1,-95.43360293,Yelp,Saftey & Security,77005
Wells Fargo Bank,banks,Financial Services,29.819129,1,-95.464924,Yelp,Saftey & Security,77092
Woodforest National Bank,banks,Financial Services,29.720382,1,-95.340977,Yelp,Saftey & Security,77021
Houston Highway Credit Union,banks,Financial Services,29.7821722,1,-95.435359,Yelp,Saftey & Security,77008
Capital One Bank,banks,Financial Services,29.7279455,1,-95.42827925,Yelp,Saftey & Security,77046
IBC Bank,banks,Financial Services,29.7217293,1,-95.4179993,Yelp,Saftey & Security,77005
First Citizens Bank,banks,Financial Services,29.741474,1,-95.461425,Yelp,Saftey & Security,77027
Frost Bank,banks,Financial Services,29.74997,1,-95.46225,Yelp,Saftey & Security,77056
Chase Bank,banks,Financial Services,29.72106757,1,-95.37866056,Yelp,Saftey & Security,77004
KRIV Fox 26,televisionstations,Alerts & Warnings,29.728336,5,-95.446853,Yelp,Communication,77046
Chase Bank,banks,Financial Services,29.70069989,1,-95.29741243,Yelp,Saftey & Security,77087
BBVA Compass,banks,Financial Services,29.80266,1,-95.39958,Yelp,Saftey & Security,77008
Regions,banks,Financial Services,29.74776,1,-95.45179,Yelp,Saftey & Security,77027
Chase Bank,banks,Financial Services,29.842055,1,-95.384794,Yelp,Saftey & Security,77076
BBVA Compass,banks,Financial Services,29.72567558,1,-95.42737579,Yelp,Saftey & Security,77098
Wells Fargo Bank,banks,Financial Services,29.70176,1,-95.29658,Yelp,Saftey & Security,77087
TDECU,banks,Financial Services,29.72988777,1,-95.43666595,Yelp,Saftey & Security,77046
Chase Bank,banks,Financial Services,29.8703,1,-95.385346,Yelp,Saftey & Security,77076
Chase Bank,banks,Financial Services,29.728753,1,-95.428618,Yelp,Saftey & Security,77046
Greater Texas Credit Union,banks,Financial Services,29.73639,1,-95.31873,Yelp,Saftey & Security,77011
Bank of America,banks,Financial Services,29.86872,1,-95.32979,Yelp,Saftey & Security,77093
Bank of America,banks,Financial Services,29.69637,1,-95.29901,Yelp,Saftey & Security,77087
Wells Fargo Bank,banks,Financial Services,29.84765244,1,-95.33470154,Yelp,Saftey & Security,77093
Enterprise Bank,banks,Financial Services,29.812081,1,-95.4237112,Yelp,Saftey & Security,77008
Prosperity Bank-Medical Center,banks,Financial Services,29.699155,1,-95.409683,Yelp,Saftey & Security,77030
Harris County Federal Credit Union,banks,Financial Services,29.7605559,1,-95.35599274,Yelp,Saftey & Security,77010
TIAA Financial Services,banks,Financial Services,29.715105,1,-95.397329,Yelp,Saftey & Security,77030
Chase Bank,banks,Financial Services,29.687501,1,-95.458009,Yelp,Saftey & Security,77401
Amegy Bank,banks,Financial Services,29.70582423,1,-95.41306291,Yelp,Saftey & Security,77030
Bank of America,banks,Financial Services,29.7064549,1,-95.4040368,Yelp,Saftey & Security,77030
IBC Bank,banks,Financial Services,29.74423409,1,-95.46699524,Yelp,Saftey & Security,77056
BBVA Compass,banks,Financial Services,29.688851,1,-95.464363,Yelp,Saftey & Security,77401
Chase Bank,banks,Financial Services,29.67330079,1,-95.28715834,Yelp,Saftey & Security,77087
Smart Financial Credit Union,banks,Financial Services,29.698726,1,-95.320373,Yelp,Saftey & Security,77087
BBVA Compass,banks,Financial Services,29.80632,1,-95.45947,Yelp,Saftey & Security,77092
Chase Bank,banks,Financial Services,29.75765,1,-95.370356,Yelp,Saftey & Security,77002
SIGA Broadcasting,radiostations,Alerts & Warnings,29.7943653,5,-95.4093895,Yelp,Communication,77008
Chase Bank,banks,Financial Services,29.73515923,1,-95.30651182,Yelp,Saftey & Security,77011
Amazing FM,radiostations,Alerts & Warnings,29.745626,5,-95.36577,Yelp,Communication,77002
KBME 790 Sports Radio,radiostations,Alerts & Warnings,29.74382591,5,-95.38779449,Yelp,Communication,77006
BBVA Compass,banks,Financial Services,29.71480372,1,-95.41544035,Yelp,Saftey & Security,77005
BBVA Compass,banks,Financial Services,29.777352,1,-95.28371036,Yelp,Saftey & Security,77020
Wells Fargo Bank,banks,Financial Services,29.79701,1,-95.34123,Yelp,Saftey & Security,77026
Origin Bank,banks,Financial Services,29.72446,1,-95.41894,Yelp,Saftey & Security,77005
BBVA Compass,banks,Financial Services,29.74792,1,-95.41817,Yelp,Saftey & Security,77019
Wide Open Spaces W / Roark,radiostations,Alerts & Warnings,29.743084,5,-95.386696,Yelp,Communication,77006
BBVA Compass,banks,Financial Services,29.735191,1,-95.3003106,Yelp,Saftey & Security,77011
Woodforest National Bank,banks,Financial Services,29.715597,1,-95.316963,Yelp,Saftey & Security,77023
Sentinel Trust Company,banks,Financial Services,29.74792,1,-95.41817,Yelp,Saftey & Security,77019
IBC Bank,banks,Financial Services,29.7209206,1,-95.4187775,Yelp,Saftey & Security,77005
Chase Bank,banks,Financial Services,29.71908,1,-95.33763,Yelp,Saftey & Security,77023
Amegy Bank,banks,Financial Services,29.733132,1,-95.435483,Yelp,Saftey & Security,77046
Chase Bank,banks,Financial Services,29.738947,1,-95.441915,Yelp,Saftey & Security,77027
Prosperity Bank,banks,Financial Services,29.87042618,1,-95.32666016,Yelp,Saftey & Security,77093
Southern Federal Credit Union,banks,Financial Services,29.730842,1,-95.4304024,Yelp,Saftey & Security,77046
Caprock Funding,banks,Financial Services,29.785163,1,-95.444999,Yelp,Saftey & Security,77008
BBVA Compass,banks,Financial Services,29.74327559,1,-95.46154618,Yelp,Saftey & Security,77056
Chase Bank,banks,Financial Services,29.758772,1,-95.363965,Yelp,Saftey & Security,77010
Barclays Bank,banks,Financial Services,29.7556036,1,-95.3616268,Yelp,Saftey & Security,77010
Wells Fargo Bank,banks,Financial Services,29.8193226,1,-95.4653244,Yelp,Saftey & Security,77092
Integrity Bank Ssb,banks,Financial Services,29.7701935,1,-95.4019656,Yelp,Saftey & Security,77007
Chase Bank,banks,Financial Services,29.7766371,1,-95.3161524,Yelp,Saftey & Security,77020
Hancock Whitney Bank,banks,Financial Services,29.73555,1,-95.41934,Yelp,Saftey & Security,77098
Comerica Bank,banks,Financial Services,29.74254319,1,-95.41809981,Yelp,Saftey & Security,77019
Chase Bank,banks,Financial Services,29.710804,1,-95.40022834,Yelp,Saftey & Security,77030
Cadence Bank - West University,banks,Financial Services,29.72005,1,-95.41819,Yelp,Saftey & Security,77005
Central Bank,banks,Financial Services,29.7484169,1,-95.37364197,Yelp,Saftey & Security,77002
Wells Fargo Bank,banks,Financial Services,29.7415858,1,-95.4413853,Yelp,Saftey & Security,77027
BBVA Compass,banks,Financial Services,29.73302,1,-95.4419,Yelp,Saftey & Security,77046
Prosperity Bancshares,banks,Financial Services,29.74642,1,-95.45092,Yelp,Saftey & Security,77027
BBVA Compass,banks,Financial Services,29.84525,1,-95.38403,Yelp,Saftey & Security,77076
Graphic Arts Credit Union,banks,Financial Services,29.80491,1,-95.45151,Yelp,Saftey & Security,77008
Texas Citizens Bank,banks,Financial Services,29.71705527,1,-95.43362121,Yelp,Saftey & Security,77005
Regions Bank,banks,Financial Services,29.8637695,1,-95.4054718,Yelp,Saftey & Security,77076
Capital Bank,banks,Financial Services,29.70998324,1,-95.27799925,Yelp,Saftey & Security,77012
Wells Fargo,banks,Financial Services,29.72370111,1,-95.44100912,Yelp,Saftey & Security,77046
BBVA Compass,banks,Financial Services,29.71383,1,-95.45526,Yelp,Saftey & Security,77401
Wellsfargo,banks,Financial Services,29.7754097,1,-95.3819733,Yelp,Saftey & Security,77201
Wells Fargo Bank,banks,Financial Services,29.73689,1,-95.305,Yelp,Saftey & Security,77011
Frost Bank,banks,Financial Services,29.75804329,1,-95.365448,Yelp,Saftey & Security,77010
TDECU,banks,Financial Services,29.75740171,1,-95.36497063,Yelp,Saftey & Security,77010
Frost,banks,Financial Services,29.742399,1,-95.416909,Yelp,Saftey & Security,77019
Chartway Federal Credit Union,banks,Financial Services,29.75492,1,-95.37264,Yelp,Saftey & Security,77002
Tradition Bank,banks,Financial Services,29.72798347,1,-95.39152527,Yelp,Saftey & Security,77006
Amerant Bank,banks,Financial Services,29.73736062,1,-95.4109899,Yelp,Saftey & Security,77098
Houston Texas Fire Fighters Federal Credit Union,banks,Financial Services,29.77778107,1,-95.40406965,Yelp,Saftey & Security,77007
Mutual of Omaha Bank,banks,Financial Services,29.7529151,1,-95.4078107,Yelp,Saftey & Security,77019
Spectrum Credit Union,banks,Financial Services,29.73379,1,-95.464785,Yelp,Saftey & Security,77027
Cadence Bank - Williams Tower Branch,banks,Financial Services,29.7370769,1,-95.4622183,Yelp,Saftey & Security,77027
Santander Private Banking,banks,Financial Services,29.7405493,1,-95.4634637,Yelp,Saftey & Security,77056
Capital One Bank,banks,Financial Services,29.7279605,1,-95.42828143,Yelp,Saftey & Security,77046
First Convenience Bank,banks,Financial Services,29.69344,1,-95.32807,Yelp,Saftey & Security,77087
Houston Metropolitan Federal Credit Union,banks,Financial Services,29.8452508,1,-95.3901327,Yelp,Saftey & Security,77076
Wells Fargo Bank,banks,Financial Services,29.671534,1,-95.460869,Yelp,Saftey & Security,77096
KKBQ 93-Q Country,radiostations,Alerts & Warnings,29.74546,5,-95.46318,Yelp,Communication,77056
Bank of America,banks,Financial Services,29.87073,1,-95.41194,Yelp,Saftey & Security,77091
Chase Bank,banks,Financial Services,29.674711,1,-95.265678,Yelp,Saftey & Security,77017
Frost Bank,banks,Financial Services,29.70645903,1,-95.460845,Yelp,Saftey & Security,77401
Wells Fargo Bank,banks,Financial Services,29.706211,1,-95.468269,Yelp,Saftey & Security,77401
George Bush Intercontinental Airport,houston airport,Aviation,29.9902199,6,-95.3367827,Google,Transportation,77032
William P. Hobby Airport,houston airport,Aviation,29.6459077,6,-95.2769054,Google,Transportation,77061
Sugar Land Regional Airport,houston airport,Aviation,29.6272669,6,-95.6528897,Google,Transportation,77498
Weiser Air Park,houston airport,Aviation,29.9345215,6,-95.6425362,Google,Transportation,77095
West Houston Airport,houston airport,Aviation,29.8155684,6,-95.6736523,Google,Transportation,77084
Houston Airpark,houston airport,Aviation,29.5196786,6,-95.2752136,Google,Transportation,77581
Rocketman Jet Center,houston airport,Aviation,29.6081546,6,-95.1690463,Google,Transportation,77034
Houston Spaceport,houston airport,Aviation,29.6039194,6,-95.1759009,Google,Transportation,77034
Signature Flight Support IAH - George Bush Intercontinental/Houston Airport,houston airport,Aviation,29.967846,6,-95.3527155,Google,Transportation,77032
Port Houston,houston port,Maritime,29.729997,6,-95.272407,Google,Transportation,77012
Port of Houston Authority,houston port,Maritime,29.682058,6,-94.9935,Google,Transportation,77571
Houston Ship Channel,houston port,Maritime,29.757673,6,-95.2924462,Google,Transportation,77011
Houston Port Trucking,houston port,Maritime,29.79585,6,-95.236135,Google,Transportation,77013
Greater Houston Port Bureau,houston port,Maritime,29.7079779,6,-95.1404544,Google,Transportation,77503
Port of Houston Authority,houston port,Maritime,29.7711073,6,-95.1030113,Google,Transportation,77530
The Port of Houston Authority,houston port,Maritime,29.612873,6,-95.025129,Google,Transportation,77586
Economic Alliance Houston Port Region,houston port,Maritime,29.7090923,6,-95.1211168,Google,Transportation,77536
Texas Port Recycling,houston port,Maritime,29.7205237,6,-95.2672818,Google,Transportation,77012
Houston Pipe Line Co LP,houston pipeline,Pipeline,29.7601541,4,-95.3656692,Google,Energy,77201
Bammel Energy Transfer,houston pipeline,Pipeline,30.001076,4,-95.4588148,Google,Energy,77090
Seminole Pipeline Co,houston pipeline,Pipeline,29.757703,4,-95.3688423,Google,Energy,77002
Houston Pipeline Co,houston pipeline,Pipeline,29.5071009,4,-95.3665348,Google,Energy,77584
Vonlane,buses,Mass Transit,29.757032,6,-95.3687017,Yelp,Transportation,77002
Select Towing,towing,Highway,29.73935509,6,-95.44672394,Yelp,Transportation,77027
West University Wrecker Service,towing,Highway,29.71943,6,-95.42141,Yelp,Transportation,77005
METRORail,publictransport,Mass Transit,29.732252,6,-95.3823456,Yelp,Transportation,77006
Metro Roadside Towing,towing,Highway,29.81122589,6,-95.40908813,Yelp,Transportation,77008
Apple Towing Co,towing,Highway,29.6687698,6,-95.4018402,Yelp,Transportation,77054
Texas Best Towing,towing,Highway,29.72319,6,-95.31782,Yelp,Transportation,77023
FJR Emergency Roadside Service,roadsideassist,Highway,29.68557549,6,-95.50863647,Yelp,Transportation,77036
Lauren Towing,roadsideassist,Highway,29.72953,6,-95.54471,Yelp,Transportation,77042
Houston Amtrak Station,trainstations,Railway,29.76762051,6,-95.36746625,Yelp,Transportation,77201
Armada Towing,towing,Highway,29.82652,6,-95.4962539,Yelp,Transportation,77092
Flatbed Towing‚Äã,towing,Highway,29.77799606,6,-95.61326599,Yelp,Transportation,77079
Frankie Rivers LockOut Service,roadsideassist,Highway,29.74536,6,-95.4669,Yelp,Transportation,77056
Med Collision Center,towing,Highway,29.69959259,6,-95.40071869,Yelp,Transportation,77030
Safeway Towing & Wrecker Service,towing,Highway,29.7386462,6,-95.4831011,Yelp,Transportation,77057
Metrorail - Smith Lands Station,trainstations,Railway,29.69642109,6,-95.40483997,Yelp,Transportation,77030
Albi Towing Services,towing,Highway,29.68312,6,-95.45702,Yelp,Transportation,77025
Fast Tow,towing,Highway,29.77226,6,-95.34605,Yelp,Transportation,77201
Echo Towing,towing,Highway,29.82816246,6,-95.3761242,Yelp,Transportation,77022
Discount Towing,towing,Highway,29.679979,6,-95.439558,Yelp,Transportation,77025
Salazar Towing,towing,Highway,29.75899506,6,-95.28114319,Yelp,Transportation,77011
Garcia's Roadside Service,roadsideassist,Highway,29.890091,6,-95.406456,Yelp,Transportation,77037
Greenlink Bus,buses,Mass Transit,29.75431016,6,-95.3638572,Yelp,Transportation,77010
SouthWest Towing Company,towing,Highway,29.6669,6,-95.463933,Yelp,Transportation,77096
Best Price 4 Towing,towing,Highway,29.72599,6,-95.44151,Yelp,Transportation,77046
Metro Auto Storage,towing,Highway,29.740511,6,-95.3520712,Yelp,Transportation,77003
Downtown Transit Center,metrostations,Mass Transit,29.7501297,6,-95.3710022,Yelp,Transportation,77002
Metrorail  Main Street Square Sb Station,publictransport,Mass Transit,29.7562429,6,-95.3655872,Yelp,Transportation,77010
San Jacinto Towing,towing,Highway,29.75866699,6,-95.28392792,Yelp,Transportation,77011
Metrorail - Fannin South,trainstations,Railway,29.67365708,6,-95.40159184,Yelp,Transportation,77054
Priority Towing,towing,Highway,29.76893,6,-95.34769,Yelp,Transportation,77201
United Towing & Transport,towing,Highway,29.65945,6,-95.57515,Yelp,Transportation,77099
Cycle Shuttle,towing,Highway,29.68557549,6,-95.50863647,Yelp,Transportation,77036
82 - Westheimer Bus,publictransport,Mass Transit,29.741923,6,-95.408777,Yelp,Transportation,77019
Reaper Towing & Recovery,towing,Highway,29.6408844,6,-95.23764801,Yelp,Transportation,77587
Houston Towing,roadsideassist,Highway,29.7175951,6,-95.5114995,Yelp,Transportation,77063
No Limit Towing,towing,Highway,29.8183406,6,-95.5249863,Yelp,Transportation,77080
O & J's Towing & Recovery,towing,Highway,29.91438,6,-95.37468,Yelp,Transportation,77037
Tow Jam,towing,Highway,29.9424064,6,-95.3873468,Yelp,Transportation,77060
Prime auto towing,towing,Highway,29.693637,6,-95.651917,Yelp,Transportation,77083
Magnolia's Finest Wrecker Service,towing,Highway,29.69514,6,-95.30036,Yelp,Transportation,77087
Metro Rail Operations Center,trainstations,Railway,29.67084122,6,-95.40197754,Yelp,Transportation,77054
Delta Towing,towing,Highway,29.730803,6,-95.428909,Yelp,Transportation,77046
360 Towing Solutions,towing,Highway,29.71763,6,-95.50784,Yelp,Transportation,77063
Pepe's Wrecker Service,towing,Highway,29.85043716,6,-95.47311401,Yelp,Transportation,77092
Rescue Wrecker Lockout Tire & Winch,roadsideassist,Highway,29.7370261,6,-95.5679552,Yelp,Transportation,77042
Road Dog Wreckers,towing,Highway,29.84762,6,-95.25848,Yelp,Transportation,77078
Fiesta Wrecker Service,towing,Highway,29.63893,6,-95.32566,Yelp,Transportation,77048
Northwest Transit Center,busstations,Mass Transit,29.783129,6,-95.455609,Yelp,Transportation,77008
Towing R Us,towing,Highway,29.72943,6,-95.52791,Yelp,Transportation,77063
SafeClear,towing,Highway,29.76018524,6,-95.36935425,Yelp,Transportation,77201
Odell's Wrecker Service,towing,Highway,29.85186,6,-95.50832,Yelp,Transportation,77040
Haulin' Iron Towing & Recovery,towing,Highway,29.96985564,6,-95.48540239,Yelp,Transportation,77066
Best Houston Towing & Roadside Assistance,roadsideassist,Highway,29.748329,6,-95.382361,Yelp,Transportation,77006
Calderon Towing,towing,Highway,29.9256,6,-95.57183,Yelp,Transportation,77064
Ensemble/HCC METRORail light rail,metrostations,Mass Transit,29.739035,6,-95.3791,Yelp,Transportation,77006
Quintana's,roadsideassist,Highway,29.95971489,6,-95.3398056,Yelp,Transportation,77032
Museum District METRORail station,metrostations,Mass Transit,29.72477158,6,-95.38914131,Yelp,Transportation,77004
Cody's Wrecker Service,towing,Highway,29.70117576,6,-95.44059444,Yelp,Transportation,77025
South Central Towing & Recovery,towing,Highway,29.74021339,6,-95.30432892,Yelp,Transportation,77011
United Roadside & Towing Service,towing,Highway,29.750735,6,-95.500778,Yelp,Transportation,77057
Lazkas Towing,towing,Highway,29.759956,6,-95.362534,Yelp,Transportation,77201
Harris County Writ Towing & Storage,towing,Highway,29.88769,6,-95.45338,Yelp,Transportation,77088
Delta Towing and Roadside Assistance,roadsideassist,Highway,29.7572979,6,-95.3652734,Yelp,Transportation,77010
Lockwood Vehicle Storage,towing,Highway,29.75151766,6,-95.32225247,Yelp,Transportation,77020
Tornado Bus Company,buses,Mass Transit,29.798979,6,-95.381315,Yelp,Transportation,77009
Central Station Rusk,trainstations,Railway,29.75775314,6,-95.3627463,Yelp,Transportation,77010
Convention District Westbound Station,trainstations,Railway,29.75498854,6,-95.35633296,Yelp,Transportation,77010
Automobile Recovery Bureau,towing,Highway,29.61581,6,-95.42135,Yelp,Transportation,77045
24/7 On Call Towing,towing,Highway,29.79360679,6,-95.45678828,Yelp,Transportation,77008
Wheeler Station,trainstations,Railway,29.732739,6,-95.383358,Yelp,Transportation,77006
V1 Towing,roadsideassist,Highway,29.69682503,6,-95.64667511,Yelp,Transportation,77083
Golden Towing,roadsideassist,Highway,29.67455,6,-95.55432,Yelp,Transportation,77031
Best Tow,towing,Highway,29.7530499,6,-95.3097534,Yelp,Transportation,77011
Homer's Wrecker Service,towing,Highway,29.70898,6,-95.29858,Yelp,Transportation,77023
Golden Towing,roadsideassist,Highway,29.81303,6,-95.57228,Yelp,Transportation,77043
South Wayside Auto Storage,towing,Highway,29.67928534,6,-95.31910873,Yelp,Transportation,77087
T & T Motors,towing,Highway,29.83480835,6,-95.33488464,Yelp,Transportation,77093
Holmes Road Auto Storage,towing,Highway,29.67354724,6,-95.38435858,Yelp,Transportation,77051
Houston Roadside Assistance,roadsideassist,Highway,29.7610168,6,-95.3695297,Yelp,Transportation,77201
Quick Towing,towing,Highway,29.759956,6,-95.362534,Yelp,Transportation,77201
JTT Enterprises,towing,Highway,29.9982588,6,-95.1730393,Yelp,Transportation,77346
Jackson's Wrecker Service,towing,Highway,29.73346,6,-95.49455,Yelp,Transportation,77057
ASAP Houston Towing service,towing,Highway,29.70947,6,-95.49573,Yelp,Transportation,77081
Alamo's Bus Service,buses,Mass Transit,29.690759,6,-95.31697,Yelp,Transportation,77087
G&P Auto Electric & Towing,towing,Highway,29.749545,6,-95.321464,Yelp,Transportation,77020
Roadside Assistance Now - Houston,towing,Highway,29.75884391,6,-95.35570242,Yelp,Transportation,77010
Houston SouthWest Towing,towing,Highway,29.6741,6,-95.53855,Yelp,Transportation,77031
Bell's Towing,towing,Highway,29.7714195,6,-95.3477402,Yelp,Transportation,77201
Omega Roadside Assistance,towing,Highway,29.90538025,6,-95.31030273,Yelp,Transportation,77039
5B's Towing & Recovery,towing,Highway,29.63851166,6,-95.42867279,Yelp,Transportation,77045
Tidwell Auto Storage,towing,Highway,29.847776,6,-95.472008,Yelp,Transportation,77092
SR Towing Unlimited,towing,Highway,29.68593216,6,-95.30337524,Yelp,Transportation,77087
JC Towing & Recovery,towing,Highway,29.8265052,6,-95.4672962,Yelp,Transportation,77092
Bell Roadside Care,roadsideassist,Highway,29.9465847,6,-95.45648193,Yelp,Transportation,77067
Point 2 Point Towing,towing,Highway,29.8076496,6,-95.4658432,Yelp,Transportation,77092
Westside Wrecker Service,towing,Highway,29.84531,6,-95.38033,Yelp,Transportation,77076
Camel Towing & Recovery,towing,Highway,29.45864,6,-95.23532,Yelp,Transportation,77546
Luna Towing & Recovery,towing,Highway,29.86826,6,-95.4008999,Yelp,Transportation,77076
Gregory's Towing,towing,Highway,29.79168,6,-95.96329,Yelp,Transportation,77423
Kare Auto Tow,towing,Highway,29.864587,6,-95.623555,Yelp,Transportation,77041
A1 Fast Tow & Auto Repair,towing,Highway,29.772184,6,-95.345955,Yelp,Transportation,77201
Twin Cities Towing,towing,Highway,29.584521,6,-95.776841,Yelp,Transportation,77406
Greenroad Towing,towing,Highway,29.69485203,6,-95.38779792,Yelp,Transportation,77054
Turimex Internacional,buses,Mass Transit,29.735668,6,-95.300751,Yelp,Transportation,77011
Ace Roadside Assistance - Mobile Tire Shop,roadsideassist,Highway,29.544245,6,-95.330749,Yelp,Transportation,77584
Mannys Towing Service,towing,Highway,29.69653702,6,-95.6459198,Yelp,Transportation,77083
Houston's Finest Wreckers,towing,Highway,29.67920767,6,-95.41594389,Yelp,Transportation,77054
Aggressive Towing & Storage,towing,Highway,30.1251831,6,-95.4182214,Yelp,Transportation,77380
Primeco Auto Towing,towing,Highway,29.81122589,6,-95.40908813,Yelp,Transportation,77008
Miller & Sons Wrecker Service,towing,Highway,29.82472,6,-95.3341,Yelp,Transportation,77026
Jaslee,towing,Highway,29.84531,6,-95.38033,Yelp,Transportation,77076
Dan Wheeler Wrecker Service,towing,Highway,29.84706503,6,-95.40927632,Yelp,Transportation,77018
Santana Wrecker Service,towing,Highway,29.8415183,6,-95.4416951,Yelp,Transportation,77018
Santana Towing,towing,Highway,29.8415183,6,-95.4416951,Yelp,Transportation,77018
TEXAS RELIABLE TOWING,towing,Highway,29.67248483,6,-95.28360274,Yelp,Transportation,77017
GRS Towing,towing,Highway,29.83878708,6,-95.46446991,Yelp,Transportation,77092
Towing Roadside Associates,roadsideassist,Highway,29.90428,6,-95.48698,Yelp,Transportation,77086
Towing Katy,towing,Highway,29.75875,6,-95.77815,Yelp,Transportation,77450
Arrow Towing,towing,Highway,29.737951,6,-95.5681911,Yelp,Transportation,77042
Q & Y Towing,towing,Highway,29.73666,6,-95.63852,Yelp,Transportation,77082
Gomez Towing,towing,Highway,29.57937,6,-95.48852,Yelp,Transportation,77053
Silver Eagle Towing,towing,Highway,29.72967148,6,-95.60351563,Yelp,Transportation,77077
Wreckamended Towing,towing,Highway,29.949398,6,-95.559907,Yelp,Transportation,77064
Roadside Service & More,roadsideassist,Highway,29.79595,6,-95.72799,Yelp,Transportation,77449
KBR Towing Service,towing,Highway,29.77262,6,-96.12399,Yelp,Transportation,77474
Low Cost Towing,towing,Highway,29.79595,6,-95.72799,Yelp,Transportation,77449
Jeff Smith Towing,towing,Highway,29.73003,6,-94.95487,Yelp,Transportation,77520
Champion Auto Towing,towing,Highway,30.02431679,6,-95.51863098,Yelp,Transportation,77379
EMC Towing,towing,Highway,30.13779,6,-95.2197599,Yelp,Transportation,77365
On Site Towing,towing,Highway,29.950578,6,-95.3034356,Yelp,Transportation,77032
Brother's Towing Service,towing,Highway,29.86003,6,-95.38391,Yelp,Transportation,77076
Recovery Associates Towing,towing,Highway,30.00259008,6,-95.27032183,Yelp,Transportation,77338
Ready Auto Tow,towing,Highway,29.9253122,6,-95.6688647,Yelp,Transportation,77095
Q & Y Towing,towing,Highway,29.69094,6,-95.69999,Yelp,Transportation,77407
H Town Towing,towing,Highway,29.7906272,6,-95.7189775,Yelp,Transportation,77094
3rd Coast Wrecker Service,towing,Highway,29.65787,6,-95.63267,Yelp,Transportation,77498
Hookem & Pullem,towing,Highway,29.665038,6,-95.657609,Yelp,Transportation,77083
Blessed Towing,towing,Highway,29.8260177,6,-95.7510475,Yelp,Transportation,77449
R & G Towing,towing,Highway,29.82689,6,-95.72065,Yelp,Transportation,77449
Hero Towing,towing,Highway,29.880354,6,-95.685973,Yelp,Transportation,77095
Harris County Household Hazardous Waste Collection Facility,hazardous waste,Facilities,29.868663,7,-95.5419263,Google,Hazardous Material,77040
SWM - Environmental Services Center,hazardous waste,Facilities,29.6496414,7,-95.4644161,Google,Hazardous Material,77035
US Ecology,hazardous waste,Facilities,29.640732,7,-95.084564,Google,Hazardous Material,77507
Southwaste Disposal LLC,hazardous waste,Facilities,29.7871231,7,-95.6659649,Google,Hazardous Material,77094
"V.F. Waste Services, LLC",hazardous waste,Facilities,29.7197632,7,-95.5257644,Google,Hazardous Material,77063
Westpark Consumer Recycling Center,hazardous waste,Facilities,29.7249,7,-95.483326,Google,Hazardous Material,77081
Clean Harbors Environmental,hazardous waste,Facilities,29.731709,7,-95.096464,Google,Hazardous Material,77536
Control Waste Services,hazardous waste,Facilities,29.9630729,7,-95.5138731,Google,Hazardous Material,77066
Clean Harbors Environmental,hazardous waste,Facilities,29.7083049,7,-95.0913199,Google,Hazardous Material,77536
Clean Harbors Environmental,hazardous waste,Facilities,29.6288976,7,-95.1615555,Google,Hazardous Material,77505
Mongtomery County Precinct 3 Residential Recycling Center,hazardous waste,Facilities,30.113026,7,-95.4533325,Google,Hazardous Material,77380
Southwaste Disposal-Hurst,hazardous waste,Facilities,29.786739,7,-95.428428,Google,Hazardous Material,77008
Houston Medical Waste Disposal,hazardous waste,Facilities,29.7562771,7,-95.3656347,Google,Hazardous Material,77010
Veolia North America - Houston Office,hazardous waste,Facilities,29.9429865,7,-95.3186154,Google,Hazardous Material,77032
Astro Waste Inc. / Best Pick Disposal Inc.,hazardous waste,Facilities,29.856011,7,-95.580354,Google,Hazardous Material,77041
Stericycle,hazardous waste,Facilities,29.5466242,7,-95.4440515,Google,Hazardous Material,77545
Veolia Environmental Services,hazardous waste,Facilities,29.9981676,7,-95.2630346,Google,Hazardous Material,77338
Excel Industrial Group LLC,hazardous waste,Facilities,30.02458,7,-95.73471,Google,Hazardous Material,77377
Stericycle,hazardous waste,Facilities,29.7099191,7,-95.4590035,Google,Hazardous Material,77401
Waste Management - Atascocita Security Landfill,hazardous waste,Facilities,29.9570817,7,-95.2432422,Google,Hazardous Material,77396
WA Parish Plant,nuclear power plant,Facilities,29.472617,7,-95.6439409,Google,Hazardous Material,77469
Calpine Deer Park Energy Center,nuclear power plant,Facilities,29.7119946,7,-95.1340036,Google,Hazardous Material,77536
Brazos Valley Energy Power Plant,nuclear power plant,Facilities,29.472493,7,-95.6231814,Google,Hazardous Material,77469
Biofuels Power Corporation,nuclear power plant,Facilities,29.6503733,7,-95.4509174,Google,Hazardous Material,77045
EIF Channelview Cogeneration,nuclear power plant,Facilities,29.8382266,7,-95.124381,Google,Hazardous Material,77049
NRC Industries,nuclear power plant,Facilities,29.8754691,7,-95.5938184,Google,Hazardous Material,77041
TH Wharton Generating Station,nuclear power plant,Facilities,29.9450784,7,-95.5277457,Google,Hazardous Material,77064